{"type":"FeatureCollection","features":[{"type":"Feature","properties":{"osm":19370736,"name":"Lee's Way","highway":"track"},"geometry":{"type":"LineString","coordinates":[[-71.60609,41.17568],[-71.60609,41.17573],[-71.60604,41.17591],[-71.60599,41.17608],[-71.60592,41.1762],[-71.60583,41.17628],[-71.60577,41.17634],[-71.6057,41.17635],[-71.60554,41.17633],[-71.60535,41.17632],[-71.60519,41.17632],[-71.6051,41.17637],[-71.60506,41.17646],[-71.60503,41.1766],[-71.60502,41.17678],[-71.60503,41.17712],[-71.60502,41.1773],[-71.60497,41.17741],[-71.60491,41.17753],[-71.6049,41.17762]]}},{"type":"Feature","properties":{"osm":19381070,"name":"","highway":"track"},"geometry":{"type":"LineString","coordinates":[[-71.58639,41.19719],[-71.58643,41.19727],[-71.58646,41.1973],[-71.58652,41.19736],[-71.58653,41.1974],[-71.58654,41.19744],[-71.58653,41.19748],[-71.58651,41.19753],[-71.58646,41.19766],[-71.58643,41.19774],[-71.58639,41.19782],[-71.58635,41.1979],[-71.58629,41.198],[-71.58626,41.19811],[-71.58623,41.19823],[-71.58622,41.19831],[-71.58622,41.1984],[-71.58623,41.19853],[-71.58625,41.19873],[-71.58629,41.19895],[-71.5863,41.19901],[-71.58629,41.1991],[-71.58625,41.19921],[-71.58625,41.19927],[-71.58626,41.19935],[-71.58625,41.19938],[-71.58616,41.19943],[-71.58608,41.19946],[-71.58598,41.19948],[-71.58591,41.19951],[-71.58583,41.19953],[-71.58577,41.19956],[-71.58574,41.19958],[-71.58568,41.19967],[-71.58559,41.19974],[-71.58555,41.19978],[-71.58547,41.19982],[-71.58546,41.19984],[-71.58527,41.20003],[-71.58521,41.20013],[-71.58518,41.20024],[-71.58512,41.2003],[-71.58508,41.20033],[-71.58499,41.20039],[-71.58488,41.20043],[-71.58478,41.20047],[-71.58458,41.20057],[-71.5844,41.20065],[-71.58433,41.20069],[-71.58428,41.20072],[-71.58421,41.20079],[-71.58414,41.20085],[-71.58402,41.20091],[-71.5839,41.20096],[-71.58376,41.201],[-71.58366,41.20105],[-71.58354,41.20113],[-71.58338,41.20121],[-71.58318,41.20129],[-71.58284,41.2014],[-71.58269,41.20147],[-71.58253,41.20157],[-71.58235,41.20169],[-71.58225,41.20179],[-71.58211,41.20188],[-71.58161,41.20211],[-71.58134,41.20226],[-71.58094,41.20252],[-71.58068,41.20262],[-71.58049,41.20276],[-71.58006,41.20309],[-71.57998,41.20316],[-71.57992,41.20325],[-71.57987,41.20332],[-71.57977,41.20341],[-71.57959,41.20368],[-71.57955,41.20378],[-71.57952,41.20409],[-71.5795,41.20442],[-71.57947,41.20471],[-71.57938,41.20495],[-71.57926,41.20524],[-71.57916,41.20556],[-71.57909,41.20585],[-71.57906,41.206],[-71.57898,41.20611],[-71.57893,41.20625],[-71.57883,41.20639],[-71.57872,41.20648],[-71.57868,41.20658],[-71.57866,41.20673],[-71.57867,41.20694],[-71.57874,41.20707],[-71.57871,41.20724],[-71.57865,41.20736],[-71.57854,41.20748],[-71.57847,41.20756],[-71.57838,41.20765],[-71.57837,41.2077],[-71.57839,41.20776],[-71.57844,41.2078],[-71.57851,41.20787],[-71.57855,41.20793],[-71.57854,41.208],[-71.5785,41.20806],[-71.57833,41.20818]]}},{"type":"Feature","properties":{"osm":19387585,"name":"","highway":"path"},"geometry":{"type":"LineString","coordinates":[[-71.57148,41.16647],[-71.5716,41.16652],[-71.57169,41.16657],[-71.57173,41.16664],[-71.57178,41.16685],[-71.57179,41.167],[-71.57179,41.16709],[-71.57175,41.16721],[-71.57173,41.16727],[-71.57172,41.16731],[-71.5717,41.16734],[-71.57162,41.16747],[-71.57155,41.16763],[-71.57148,41.16773],[-71.57146,41.1678],[-71.57145,41.16788],[-71.57146,41.16797],[-71.57141,41.16811],[-71.57141,41.16817],[-71.57142,41.16822],[-71.57145,41.16828]]}},{"type":"Feature","properties":{"osm":19387609,"name":"","highway":"path"},"geometry":{"type":"LineString","coordinates":[[-71.57152,41.16823],[-71.57145,41.16828],[-71.5714,41.1683],[-71.57134,41.16833],[-71.57116,41.1684],[-71.57087,41.16852],[-71.57062,41.16864],[-71.57059,41.16866]]}},{"type":"Feature","properties":{"osm":19389101,"name":"","highway":"path"},"geometry":{"type":"LineString","coordinates":[[-71.59121,41.14906],[-71.59117,41.149],[-71.59113,41.14898],[-71.59108,41.14894],[-71.59094,41.14888],[-71.59088,41.14886],[-71.59081,41.14885],[-71.59057,41.14886],[-71.59029,41.14891],[-71.59013,41.1489],[-71.59007,41.14889],[-71.58989,41.14889],[-71.58972,41.1489],[-71.58964,41.14887],[-71.58957,41.14884],[-71.58952,41.14885],[-71.58934,41.14888],[-71.58918,41.14886],[-71.58896,41.14876],[-71.58881,41.14864],[-71.58861,41.14859],[-71.58821,41.14857],[-71.58814,41.14858],[-71.58798,41.14863],[-71.58784,41.14867],[-71.58775,41.14872],[-71.58764,41.1488],[-71.58752,41.14892],[-71.58745,41.14896],[-71.58736,41.14898],[-71.58721,41.14899],[-71.58708,41.14897],[-71.58699,41.14893],[-71.58689,41.14891]]}},{"type":"Feature","properties":{"osm":184010115,"name":"","highway":"footway"},"geometry":{"type":"LineString","coordinates":[[-71.5588,41.17269],[-71.55831,41.17291],[-71.55824,41.17294]]}},{"type":"Feature","properties":{"osm":415340139,"name":"","highway":"path"},"geometry":{"type":"LineString","coordinates":[[-71.58813,41.15259],[-71.58818,41.15262],[-71.58826,41.15265],[-71.58858,41.15268],[-71.58876,41.15274],[-71.58892,41.15279],[-71.58916,41.15284],[-71.58929,41.15292],[-71.58934,41.15294],[-71.58941,41.15294],[-71.58959,41.15293],[-71.58967,41.1529],[-71.58972,41.15287],[-71.58976,41.15287],[-71.58984,41.15291],[-71.58991,41.15291],[-71.58997,41.15289],[-71.59011,41.15288]]}},{"type":"Feature","properties":{"osm":415340145,"name":"","highway":"path"},"geometry":{"type":"LineString","coordinates":[[-71.58632,41.15627],[-71.58624,41.15628],[-71.58623,41.15632],[-71.58621,41.15635],[-71.58616,41.15637],[-71.58612,41.15638],[-71.5861,41.15646],[-71.58604,41.15651],[-71.58603,41.1566],[-71.58605,41.15665],[-71.58615,41.15676],[-71.58614,41.15681],[-71.58612,41.15686],[-71.58605,41.15687],[-71.58591,41.15685],[-71.58579,41.1569],[-71.58563,41.15697],[-71.5856,41.15707],[-71.58553,41.15713],[-71.58542,41.15721],[-71.5853,41.15726],[-71.58526,41.15735],[-71.58526,41.15744],[-71.58521,41.15751],[-71.58516,41.15755],[-71.58502,41.15775],[-71.58497,41.15785],[-71.58486,41.15794],[-71.58468,41.158],[-71.58458,41.15802],[-71.58439,41.15802],[-71.5843,41.15803],[-71.58423,41.15807],[-71.58418,41.15817],[-71.58411,41.1582]]}},{"type":"Feature","properties":{"osm":415340147,"name":"","highway":"path"},"geometry":{"type":"LineString","coordinates":[[-71.58814,41.14858],[-71.58814,41.14866],[-71.58813,41.14871],[-71.58811,41.14891],[-71.5881,41.14899],[-71.58811,41.14905],[-71.58812,41.1491],[-71.58818,41.14916],[-71.58818,41.1492],[-71.58816,41.14926],[-71.58817,41.14932],[-71.58823,41.14941],[-71.58827,41.14947],[-71.58829,41.14956],[-71.58828,41.14966],[-71.58831,41.14974],[-71.5884,41.14988],[-71.58849,41.14993],[-71.58852,41.14998],[-71.58854,41.15017],[-71.58853,41.15024],[-71.58846,41.15041],[-71.58837,41.15049],[-71.58823,41.15054],[-71.58814,41.15058],[-71.58812,41.1506],[-71.58813,41.15063],[-71.58817,41.15066],[-71.5882,41.15069],[-71.58821,41.15074],[-71.58818,41.1508],[-71.58811,41.15088],[-71.58808,41.15094],[-71.58802,41.15098],[-71.58796,41.15098],[-71.58785,41.15098],[-71.58781,41.15099],[-71.58779,41.15103],[-71.58782,41.15112],[-71.58781,41.15117],[-71.58776,41.15121],[-71.5877,41.15124],[-71.58766,41.15128],[-71.58764,41.15133],[-71.58764,41.15138],[-71.58762,41.15142],[-71.58763,41.15145],[-71.58766,41.15148],[-71.58775,41.15155],[-71.5878,41.15159],[-71.58783,41.15166],[-71.58785,41.1518],[-71.58786,41.15188],[-71.58791,41.15193],[-71.58804,41.15203],[-71.58816,41.15209],[-71.58824,41.15215],[-71.58831,41.1522],[-71.58831,41.15223],[-71.5883,41.15226],[-71.58826,41.15233],[-71.58824,41.15238],[-71.58815,41.15251],[-71.58813,41.15259],[-71.58808,41.15263],[-71.58807,41.15271],[-71.58805,41.15285],[-71.58803,41.15291],[-71.58798,41.15297],[-71.58788,41.15299],[-71.58776,41.15297],[-71.58763,41.15289],[-71.58752,41.15279],[-71.58746,41.15279],[-71.58736,41.15283],[-71.58729,41.15303],[-71.58735,41.15309],[-71.58745,41.15329],[-71.58766,41.15348],[-71.58783,41.15354],[-71.58789,41.15363],[-71.58796,41.1537],[-71.58806,41.15373],[-71.58813,41.15379],[-71.58824,41.15393],[-71.5883,41.15419],[-71.58835,41.1543],[-71.58835,41.15439],[-71.58829,41.15449],[-71.5882,41.15455],[-71.58814,41.15458],[-71.58803,41.15457],[-71.58793,41.15457],[-71.5879,41.15459],[-71.58788,41.15465],[-71.58787,41.15471],[-71.58782,41.15474],[-71.58777,41.15479],[-71.58778,41.15484],[-71.58782,41.1549],[-71.58801,41.15499],[-71.58816,41.15507],[-71.5882,41.15514],[-71.58821,41.15535],[-71.58826,41.15557],[-71.5882,41.1557],[-71.58824,41.15577],[-71.58841,41.15587],[-71.58849,41.1559],[-71.58862,41.1559],[-71.58871,41.1559],[-71.58883,41.15595],[-71.58896,41.15607],[-71.58897,41.15612],[-71.58895,41.15617],[-71.58896,41.15621],[-71.58906,41.15636],[-71.58905,41.15661],[-71.58899,41.15671],[-71.58885,41.15683],[-71.58878,41.1569],[-71.58876,41.15697],[-71.5888,41.15706],[-71.58886,41.15709],[-71.58896,41.15713],[-71.58908,41.15724],[-71.58916,41.15736],[-71.58925,41.15743],[-71.58934,41.15748],[-71.58941,41.1575],[-71.58946,41.15748],[-71.58954,41.15746],[-71.58967,41.15749],[-71.58972,41.15757],[-71.58984,41.15763],[-71.58994,41.15766],[-71.59011,41.15765],[-71.59026,41.15764],[-71.59043,41.15764],[-71.59052,41.15764],[-71.59069,41.15761],[-71.59086,41.15755],[-71.59099,41.15752]]}},{"type":"Feature","properties":{"osm":415340148,"name":"","highway":"path"},"geometry":{"type":"LineString","coordinates":[[-71.59007,41.14889],[-71.59017,41.14871],[-71.59022,41.14854],[-71.59027,41.14842],[-71.59033,41.14837],[-71.59039,41.14821],[-71.59049,41.1481],[-71.5907,41.148],[-71.59093,41.14776]]}},{"type":"Feature","properties":{"osm":415340150,"name":"","highway":"path"},"geometry":{"type":"LineString","coordinates":[[-71.58777,41.15479],[-71.58755,41.15471],[-71.58748,41.15468],[-71.58743,41.15462],[-71.5874,41.15456],[-71.58735,41.15452],[-71.58726,41.15455],[-71.58721,41.15465],[-71.58712,41.15465],[-71.587,41.15465],[-71.58685,41.15459],[-71.58673,41.15454],[-71.58665,41.15456],[-71.58659,41.15463],[-71.58656,41.15474],[-71.58644,41.15479],[-71.58636,41.15481],[-71.58632,41.15491],[-71.58638,41.15519],[-71.58642,41.15527],[-71.58652,41.15531],[-71.58663,41.15536],[-71.58664,41.15544],[-71.58663,41.15551],[-71.58644,41.15569],[-71.58635,41.15596],[-71.58638,41.15604],[-71.58632,41.15627],[-71.58641,41.15646],[-71.58652,41.15666],[-71.5867,41.15683],[-71.58689,41.15697],[-71.58703,41.1572],[-71.58721,41.15739],[-71.5873,41.15764],[-71.58746,41.1578],[-71.58753,41.15799],[-71.58759,41.15819],[-71.58765,41.15822],[-71.58775,41.15819],[-71.58786,41.15813],[-71.58795,41.15805],[-71.58804,41.15807],[-71.58821,41.1582],[-71.58839,41.15829],[-71.58847,41.1583],[-71.58857,41.15827],[-71.5888,41.15811],[-71.58896,41.15807],[-71.58914,41.15808],[-71.58928,41.15814],[-71.58948,41.15815],[-71.58978,41.15813],[-71.58993,41.15819],[-71.59007,41.15824],[-71.59015,41.15823],[-71.59019,41.15819],[-71.59022,41.15807],[-71.59034,41.15792],[-71.59036,41.15777],[-71.59043,41.15764]]}},{"type":"Feature","properties":{"osm":415341914,"name":"","highway":"path"},"geometry":{"type":"LineString","coordinates":[[-71.59127,41.15924],[-71.59132,41.15925],[-71.59138,41.15926],[-71.59146,41.15926],[-71.59151,41.15925],[-71.59155,41.15925],[-71.59161,41.15925],[-71.59168,41.15924],[-71.59176,41.15922],[-71.59181,41.15919],[-71.59187,41.15915],[-71.5919,41.15912],[-71.59195,41.15911],[-71.59203,41.15911],[-71.59206,41.15913],[-71.59211,41.15919],[-71.59216,41.15921],[-71.59221,41.15925],[-71.59224,41.15929],[-71.59224,41.15939],[-71.59228,41.15944],[-71.59233,41.15946],[-71.59249,41.15949],[-71.59271,41.15952],[-71.59291,41.15952],[-71.59316,41.15955],[-71.5934,41.15957],[-71.59351,41.15955],[-71.59359,41.15952],[-71.59365,41.1595],[-71.59374,41.15951],[-71.59381,41.15955],[-71.59389,41.15961],[-71.59391,41.15969],[-71.5939,41.15988],[-71.59391,41.16001],[-71.59389,41.16011],[-71.59389,41.16022],[-71.59391,41.16032]]}},{"type":"Feature","properties":{"osm":415341915,"name":"","highway":"path"},"geometry":{"type":"LineString","coordinates":[[-71.59427,41.16031],[-71.59428,41.16037],[-71.59395,41.16039],[-71.59396,41.1604],[-71.59401,41.16044],[-71.59401,41.16048],[-71.594,41.16053],[-71.59399,41.16064],[-71.59413,41.16144],[-71.59419,41.1615],[-71.59454,41.16307],[-71.59456,41.16307],[-71.59462,41.16322],[-71.59463,41.16329],[-71.59485,41.16333],[-71.59513,41.1636],[-71.59498,41.16445]]}},{"type":"Feature","properties":{"osm":415341916,"name":"","highway":"path"},"geometry":{"type":"LineString","coordinates":[[-71.59504,41.16445],[-71.59482,41.16477],[-71.59471,41.16535],[-71.59462,41.16588],[-71.59451,41.16604],[-71.59428,41.16611],[-71.59376,41.16591],[-71.59355,41.16594],[-71.59365,41.16633],[-71.59405,41.16645],[-71.59424,41.16661],[-71.59448,41.16668],[-71.59445,41.16672],[-71.59437,41.16682],[-71.59442,41.16692],[-71.59438,41.16736],[-71.59427,41.16757],[-71.59472,41.16767],[-71.59482,41.16775],[-71.59485,41.16789],[-71.59454,41.1686],[-71.59435,41.16882],[-71.59422,41.16887],[-71.59403,41.16887],[-71.59349,41.16871],[-71.59297,41.16873],[-71.5927,41.16878],[-71.59262,41.16876],[-71.59261,41.16871],[-71.59265,41.16851],[-71.5928,41.16833],[-71.59301,41.16829],[-71.59309,41.168],[-71.5932,41.16784],[-71.59325,41.1676],[-71.59363,41.16748],[-71.59427,41.16757]]}},{"type":"Feature","properties":{"osm":415341917,"name":"","highway":"path"},"geometry":{"type":"LineString","coordinates":[[-71.5932,41.16784],[-71.59309,41.16777],[-71.59297,41.16762],[-71.59291,41.16744],[-71.59193,41.16731]]}},{"type":"Feature","properties":{"osm":415341919,"name":"","highway":"path"},"geometry":{"type":"LineString","coordinates":[[-71.59141,41.16489],[-71.59172,41.16515],[-71.59171,41.16528],[-71.59158,41.16668],[-71.59138,41.16724],[-71.59138,41.16777],[-71.59096,41.16801],[-71.59058,41.16803],[-71.59018,41.16832],[-71.58948,41.16912],[-71.58949,41.16984],[-71.58968,41.17004],[-71.58955,41.17127],[-71.58954,41.17134],[-71.58977,41.17152],[-71.58965,41.17198],[-71.58913,41.17219],[-71.58904,41.17277],[-71.5885,41.17302],[-71.58834,41.17329]]}},{"type":"Feature","properties":{"osm":415341922,"name":"","highway":"path"},"geometry":{"type":"LineString","coordinates":[[-71.58955,41.17127],[-71.58905,41.17122],[-71.58897,41.17135],[-71.58913,41.17152],[-71.58913,41.17219]]}},{"type":"Feature","properties":{"osm":415341924,"name":"","highway":"path"},"geometry":{"type":"LineString","coordinates":[[-71.58948,41.16912],[-71.58886,41.16904],[-71.58866,41.16884],[-71.58743,41.1687],[-71.58689,41.1688],[-71.58634,41.16838],[-71.58553,41.16808],[-71.58521,41.16821],[-71.58535,41.16903],[-71.58492,41.1694],[-71.58474,41.1692],[-71.58345,41.16884],[-71.58321,41.16873]]}},{"type":"Feature","properties":{"osm":415341928,"name":"","highway":"path"},"geometry":{"type":"LineString","coordinates":[[-71.59355,41.16594],[-71.5934,41.16607],[-71.59331,41.16622],[-71.59305,41.16619],[-71.59286,41.16614],[-71.59262,41.16618],[-71.59247,41.1661]]}},{"type":"Feature","properties":{"osm":415341929,"name":"","highway":"path"},"geometry":{"type":"LineString","coordinates":[[-71.58834,41.17329],[-71.58829,41.17336],[-71.58821,41.17368],[-71.58825,41.1739],[-71.58821,41.17419],[-71.58812,41.17447],[-71.58771,41.17448],[-71.58748,41.17442],[-71.58724,41.17443],[-71.58658,41.17435],[-71.58648,41.17473],[-71.58641,41.17503],[-71.58636,41.17508],[-71.58628,41.1751],[-71.58553,41.17488],[-71.58422,41.17444],[-71.58406,41.17462],[-71.58381,41.17481],[-71.58333,41.17517]]}},{"type":"Feature","properties":{"osm":415341930,"name":"","highway":"path"},"geometry":{"type":"LineString","coordinates":[[-71.58429,41.15891],[-71.58418,41.15917],[-71.58433,41.15968],[-71.58455,41.15977],[-71.58453,41.15999],[-71.58466,41.16012],[-71.58456,41.1602],[-71.58465,41.16031],[-71.5848,41.16039],[-71.58471,41.16055],[-71.58449,41.16057],[-71.58445,41.16083],[-71.58418,41.16087],[-71.58407,41.16107],[-71.58391,41.16136],[-71.5838,41.16143],[-71.58289,41.16144],[-71.58285,41.16144],[-71.58251,41.16159],[-71.58157,41.16169],[-71.58153,41.16184],[-71.58177,41.16221],[-71.58177,41.16253],[-71.58154,41.16272],[-71.58108,41.16251],[-71.58092,41.1627],[-71.57929,41.1631]]}},{"type":"Feature","properties":{"osm":415341931,"name":"","highway":"path"},"geometry":{"type":"LineString","coordinates":[[-71.57673,41.1615],[-71.57649,41.16166],[-71.576,41.16161],[-71.57544,41.16132],[-71.57496,41.16126],[-71.57462,41.16142],[-71.57401,41.16133],[-71.57362,41.16098],[-71.57371,41.16064],[-71.57348,41.16045],[-71.57361,41.15996],[-71.57316,41.15984],[-71.57303,41.15949],[-71.57069,41.15952],[-71.57045,41.15986],[-71.56991,41.15999],[-71.56986,41.15955],[-71.56843,41.15926],[-71.56831,41.15923],[-71.56648,41.15933],[-71.56645,41.1601],[-71.56546,41.16013]]}},{"type":"Feature","properties":{"osm":415341932,"name":"","highway":"path"},"geometry":{"type":"LineString","coordinates":[[-71.58054,41.15804],[-71.58098,41.15806],[-71.58084,41.15833],[-71.5811,41.15922],[-71.58131,41.15956],[-71.58168,41.15996],[-71.58238,41.15994],[-71.58286,41.16006],[-71.58333,41.16003]]}},{"type":"Feature","properties":{"osm":415341933,"name":"","highway":"path"},"geometry":{"type":"LineString","coordinates":[[-71.58131,41.15956],[-71.58098,41.15958],[-71.58118,41.16092],[-71.58144,41.16138],[-71.58151,41.1615],[-71.58157,41.16169]]}},{"type":"Feature","properties":{"osm":415341934,"name":"","highway":"path"},"geometry":{"type":"LineString","coordinates":[[-71.59028,41.15127],[-71.59047,41.15129],[-71.59067,41.15128],[-71.59077,41.15131],[-71.5909,41.15131],[-71.59127,41.1513],[-71.59143,41.15129],[-71.59151,41.15132],[-71.59159,41.15133],[-71.59166,41.15131],[-71.59173,41.15127],[-71.59179,41.15126],[-71.59185,41.15129],[-71.59187,41.15134],[-71.59187,41.15138],[-71.59185,41.15143],[-71.59183,41.15148],[-71.59186,41.15153],[-71.59192,41.15159],[-71.59202,41.15174],[-71.59217,41.15199],[-71.59225,41.15209],[-71.59237,41.15216],[-71.59246,41.15217],[-71.59254,41.15216],[-71.59259,41.15214],[-71.59262,41.1521],[-71.59265,41.15203],[-71.59273,41.15197],[-71.59298,41.15188],[-71.59319,41.15181],[-71.5933,41.15175],[-71.59336,41.15167],[-71.59336,41.15158],[-71.59337,41.15149],[-71.59339,41.15139],[-71.59343,41.15133],[-71.59349,41.15128],[-71.5938,41.15115],[-71.59395,41.15107],[-71.59405,41.15099],[-71.59415,41.15085],[-71.59429,41.15067],[-71.59447,41.15046],[-71.59456,41.15035],[-71.59463,41.15018],[-71.59471,41.15005],[-71.59479,41.15002],[-71.59484,41.14999],[-71.59486,41.14994],[-71.59487,41.14988],[-71.59488,41.14983],[-71.59493,41.14976],[-71.59494,41.14974],[-71.59493,41.14972],[-71.59491,41.1497],[-71.5949,41.14968],[-71.59493,41.14962],[-71.59494,41.14954],[-71.59495,41.14948],[-71.59492,41.14944],[-71.59488,41.14941],[-71.5948,41.14938],[-71.59476,41.14931],[-71.59475,41.14923],[-71.59475,41.14912],[-71.59475,41.14904],[-71.59477,41.14898],[-71.59477,41.14891],[-71.59474,41.14883],[-71.59474,41.14879],[-71.59476,41.14875],[-71.59481,41.1487],[-71.59487,41.14869],[-71.59491,41.14866],[-71.59491,41.14862],[-71.59489,41.14859]]}},{"type":"Feature","properties":{"osm":415341935,"name":"","highway":"path"},"geometry":{"type":"LineString","coordinates":[[-71.59489,41.14859],[-71.59478,41.14852],[-71.59475,41.14847],[-71.59468,41.14842],[-71.59465,41.14839],[-71.59463,41.14834],[-71.59461,41.1483],[-71.59458,41.14827],[-71.59455,41.14824],[-71.59453,41.1482],[-71.59452,41.14817],[-71.59451,41.14809],[-71.59449,41.14802],[-71.59442,41.14796],[-71.5943,41.14786],[-71.59424,41.1478],[-71.59417,41.14764],[-71.5941,41.14756],[-71.59399,41.1475],[-71.59375,41.1474],[-71.59362,41.14734],[-71.59346,41.14729],[-71.59341,41.14725],[-71.59338,41.14721],[-71.59332,41.14721],[-71.59325,41.14721],[-71.59317,41.14722],[-71.59309,41.14721],[-71.59304,41.14719],[-71.59296,41.14719],[-71.5929,41.14721],[-71.59286,41.14725],[-71.59276,41.14727],[-71.59267,41.14729],[-71.59257,41.1473],[-71.59252,41.1473],[-71.59247,41.1473],[-71.59234,41.14736],[-71.59217,41.14745],[-71.59202,41.14752],[-71.59181,41.14759],[-71.59177,41.14762]]}},{"type":"Feature","properties":{"osm":415341936,"name":"","highway":"path"},"geometry":{"type":"LineString","coordinates":[[-71.59177,41.14762],[-71.59139,41.1478],[-71.59093,41.14776],[-71.59057,41.14771],[-71.59049,41.14774],[-71.59043,41.14775],[-71.59034,41.14779],[-71.59028,41.14779],[-71.59004,41.14777],[-71.58997,41.14778],[-71.58983,41.14783],[-71.5899,41.14792],[-71.58992,41.14799],[-71.5899,41.14805],[-71.58946,41.14832],[-71.58942,41.14837],[-71.58939,41.14843],[-71.58938,41.14848],[-71.58946,41.14858],[-71.58959,41.14866],[-71.58965,41.14872],[-71.58964,41.14877],[-71.5896,41.14881],[-71.58957,41.14884]]}},{"type":"Feature","properties":{"osm":415522833,"name":"","highway":"path"},"geometry":{"type":"LineString","coordinates":[[-71.57593,41.22741],[-71.57599,41.22769],[-71.57618,41.22784],[-71.57628,41.22799],[-71.57639,41.22828],[-71.57663,41.22835],[-71.57677,41.22848],[-71.57691,41.2285]]}},{"type":"Feature","properties":{"osm":415522835,"name":"","highway":"path"},"geometry":{"type":"LineString","coordinates":[[-71.56749,41.2246],[-71.56796,41.22456],[-71.56827,41.22456],[-71.56877,41.22459],[-71.5692,41.22468],[-71.56956,41.22476],[-71.56977,41.22481],[-71.56998,41.22488],[-71.57012,41.22494],[-71.57031,41.22502],[-71.57057,41.22513],[-71.57097,41.22533],[-71.57136,41.22553],[-71.57157,41.22563],[-71.57179,41.22574],[-71.57209,41.22588],[-71.57247,41.22606],[-71.57263,41.22621],[-71.57268,41.22624],[-71.57301,41.22642],[-71.57339,41.22665],[-71.57392,41.22703],[-71.574,41.22707],[-71.57415,41.22714],[-71.57438,41.22723],[-71.57448,41.22726],[-71.57455,41.22728],[-71.57461,41.22729],[-71.57467,41.22729],[-71.57475,41.22728],[-71.57491,41.22725],[-71.57497,41.22724],[-71.57502,41.22724],[-71.57507,41.22725],[-71.57526,41.22731],[-71.57543,41.2274],[-71.57552,41.22743],[-71.5756,41.22745],[-71.57565,41.22746],[-71.57572,41.22747],[-71.57584,41.22745],[-71.57593,41.22741],[-71.57596,41.22732],[-71.57588,41.22725],[-71.57575,41.22719],[-71.5755,41.22721],[-71.57532,41.22725],[-71.57526,41.22731]]}},{"type":"Feature","properties":{"osm":415537720,"name":"","highway":"path"},"geometry":{"type":"LineString","coordinates":[[-71.56318,41.2089],[-71.5629,41.20891],[-71.56254,41.20879],[-71.56228,41.20862],[-71.56207,41.20857],[-71.562,41.20866],[-71.56193,41.20869],[-71.56174,41.20863],[-71.56145,41.20861],[-71.56123,41.20857],[-71.56097,41.20844],[-71.56077,41.20805],[-71.56049,41.20765],[-71.56038,41.20759],[-71.56035,41.2074],[-71.56029,41.20736],[-71.5602,41.20737],[-71.55999,41.20748],[-71.55977,41.20738],[-71.55904,41.20689],[-71.55885,41.20693],[-71.55856,41.20656],[-71.55822,41.20607],[-71.55811,41.20601],[-71.55796,41.20606],[-71.55793,41.2061],[-71.55796,41.20617],[-71.55783,41.20635],[-71.55782,41.20642],[-71.55787,41.20656],[-71.55782,41.20663],[-71.55772,41.20665],[-71.55762,41.20665],[-71.5576,41.2067],[-71.55767,41.20678],[-71.55774,41.20682],[-71.55777,41.20688],[-71.55784,41.20694],[-71.55784,41.20698],[-71.55776,41.20697],[-71.55768,41.20693],[-71.55758,41.20693],[-71.55754,41.20696],[-71.55756,41.20704],[-71.55754,41.20712],[-71.55755,41.20717],[-71.55766,41.20724],[-71.55766,41.20733],[-71.55748,41.20743],[-71.55722,41.2075],[-71.55693,41.20773],[-71.55681,41.20794],[-71.55662,41.20803],[-71.55648,41.20815],[-71.55623,41.20832],[-71.55619,41.20846],[-71.55624,41.20875],[-71.55623,41.20879],[-71.55613,41.20886],[-71.55607,41.20895],[-71.55608,41.20919],[-71.55608,41.20928],[-71.55614,41.20941],[-71.55624,41.20952],[-71.55625,41.20962],[-71.55635,41.20985],[-71.55642,41.20992],[-71.55651,41.20993],[-71.55665,41.20994],[-71.55669,41.21007],[-71.55662,41.21031],[-71.55654,41.2104],[-71.5563,41.21046],[-71.55611,41.21069],[-71.55605,41.21087],[-71.55613,41.21109]]}},{"type":"Feature","properties":{"osm":415537724,"name":"","highway":"path"},"geometry":{"type":"LineString","coordinates":[[-71.55613,41.21109],[-71.55611,41.21146],[-71.55595,41.21157],[-71.55578,41.2116],[-71.55562,41.21156],[-71.55551,41.21156],[-71.55542,41.21159],[-71.55531,41.21176],[-71.55523,41.21173],[-71.55519,41.21168]]}},{"type":"Feature","properties":{"osm":415537727,"name":"","highway":"path"},"geometry":{"type":"LineString","coordinates":[[-71.55543,41.2128],[-71.55518,41.21269],[-71.55509,41.2127],[-71.55507,41.21275],[-71.5551,41.21278],[-71.55515,41.2128],[-71.55518,41.21288],[-71.55525,41.21294],[-71.55552,41.21307],[-71.55569,41.21325],[-71.55584,41.21338],[-71.556,41.21364],[-71.55619,41.21379],[-71.55637,41.21388],[-71.55679,41.21392],[-71.55692,41.21399],[-71.55697,41.21407],[-71.55713,41.2146],[-71.55709,41.21476],[-71.55723,41.21485],[-71.55742,41.21619]]}},{"type":"Feature","properties":{"osm":415537731,"name":"","highway":"path"},"geometry":{"type":"LineString","coordinates":[[-71.55723,41.21485],[-71.55797,41.21499],[-71.55868,41.21505],[-71.55896,41.21516],[-71.5591,41.21548],[-71.55945,41.21562],[-71.55933,41.21594],[-71.55943,41.21605],[-71.55953,41.21605],[-71.55997,41.21606],[-71.5603,41.21611],[-71.56071,41.21596]]}},{"type":"Feature","properties":{"osm":415537733,"name":"","highway":"path"},"geometry":{"type":"LineString","coordinates":[[-71.55889,41.21619],[-71.55906,41.21702],[-71.55936,41.21765],[-71.55937,41.21773],[-71.55941,41.21785],[-71.55928,41.21815]]}},{"type":"Feature","properties":{"osm":415537735,"name":"","highway":"path"},"geometry":{"type":"LineString","coordinates":[[-71.55868,41.21505],[-71.55869,41.2153],[-71.5583,41.21561],[-71.55817,41.2159],[-71.55821,41.2162]]}},{"type":"Feature","properties":{"osm":415537736,"name":"","highway":"path"},"geometry":{"type":"LineString","coordinates":[[-71.56268,41.2026],[-71.56218,41.20254],[-71.56182,41.20189],[-71.56137,41.20163],[-71.56127,41.20142]]}},{"type":"Feature","properties":{"osm":415537739,"name":"","highway":"path"},"geometry":{"type":"LineString","coordinates":[[-71.5671,41.18259],[-71.56661,41.18269]]}},{"type":"Feature","properties":{"osm":415537741,"name":"","highway":"path"},"geometry":{"type":"LineString","coordinates":[[-71.56324,41.20048],[-71.56266,41.20042],[-71.56249,41.2005],[-71.56228,41.20045],[-71.56213,41.20034]]}},{"type":"Feature","properties":{"osm":415574700,"name":"","highway":"path"},"geometry":{"type":"LineString","coordinates":[[-71.56142,41.2214],[-71.56154,41.22048],[-71.56227,41.22059],[-71.56224,41.22083],[-71.56159,41.22118],[-71.56155,41.22137]]}},{"type":"Feature","properties":{"osm":415574701,"name":"","highway":"path"},"geometry":{"type":"LineString","coordinates":[[-71.59865,41.16875],[-71.59861,41.16877],[-71.59712,41.1686]]}},{"type":"Feature","properties":{"osm":415574702,"name":"","highway":"path"},"geometry":{"type":"LineString","coordinates":[[-71.5603,41.21611],[-71.5603,41.21622],[-71.56029,41.21633],[-71.56023,41.21654],[-71.56034,41.21665],[-71.56029,41.21673],[-71.56021,41.21673],[-71.56019,41.21684],[-71.5603,41.21702],[-71.56018,41.2174]]}},{"type":"Feature","properties":{"osm":415574705,"name":"","highway":"path"},"geometry":{"type":"LineString","coordinates":[[-71.55896,41.21516],[-71.55924,41.21496],[-71.55937,41.21495],[-71.55958,41.21505],[-71.55986,41.21497],[-71.56006,41.21503],[-71.56029,41.21511],[-71.56021,41.21534],[-71.56044,41.21546],[-71.56071,41.21596],[-71.56089,41.21618],[-71.5609,41.21643],[-71.56099,41.21675],[-71.5612,41.21701],[-71.5613,41.21704],[-71.56165,41.21702],[-71.56168,41.21702],[-71.56175,41.21703],[-71.56186,41.21702],[-71.5624,41.21693],[-71.56251,41.21691]]}},{"type":"Feature","properties":{"osm":415574706,"name":"","highway":"path"},"geometry":{"type":"LineString","coordinates":[[-71.58905,41.16632],[-71.58924,41.16615]]}},{"type":"Feature","properties":{"osm":415574709,"name":"","highway":"path"},"geometry":{"type":"LineString","coordinates":[[-71.58289,41.16144],[-71.58267,41.16109]]}},{"type":"Feature","properties":{"osm":415574710,"name":"","highway":"path"},"geometry":{"type":"LineString","coordinates":[[-71.59698,41.16835],[-71.59682,41.16816],[-71.59692,41.16775],[-71.59693,41.16757],[-71.59689,41.16745],[-71.59675,41.16734],[-71.59662,41.1673],[-71.59592,41.16723],[-71.59584,41.16722],[-71.59575,41.16724],[-71.59571,41.16725],[-71.59541,41.16727],[-71.59529,41.16732],[-71.59527,41.16741],[-71.59533,41.16751],[-71.59527,41.1676],[-71.59525,41.16767],[-71.59527,41.1677],[-71.59531,41.16771],[-71.59536,41.16769],[-71.59544,41.16763],[-71.59546,41.16751],[-71.59542,41.16749],[-71.5954,41.16744],[-71.59542,41.16739],[-71.59568,41.16732],[-71.59573,41.16729],[-71.59575,41.16724]]}},{"type":"Feature","properties":{"osm":415574712,"name":"","highway":"path"},"geometry":{"type":"LineString","coordinates":[[-71.56006,41.21503],[-71.5606,41.21503],[-71.56078,41.21511],[-71.56074,41.2153],[-71.56088,41.21563],[-71.56104,41.21564],[-71.56104,41.21572],[-71.56127,41.21578],[-71.56132,41.21591],[-71.56146,41.21597],[-71.56147,41.21604],[-71.5612,41.21608],[-71.56112,41.21619],[-71.56122,41.21622],[-71.56134,41.2162],[-71.56145,41.21622],[-71.56153,41.21624],[-71.56157,41.21627],[-71.56158,41.21632],[-71.56155,41.21645],[-71.56159,41.21667],[-71.56162,41.21686],[-71.56165,41.21702]]}},{"type":"Feature","properties":{"osm":415574713,"name":"","highway":"path"},"geometry":{"type":"LineString","coordinates":[[-71.59066,41.15987],[-71.59063,41.15998],[-71.59067,41.16002],[-71.59067,41.16024],[-71.59076,41.16043],[-71.5907,41.16068],[-71.59072,41.16082],[-71.59085,41.16092],[-71.59088,41.16133],[-71.5908,41.1615],[-71.59084,41.16167]]}},{"type":"Feature","properties":{"osm":415574714,"name":"","highway":"path"},"geometry":{"type":"LineString","coordinates":[[-71.60178,41.15844],[-71.60177,41.15856],[-71.60183,41.15897],[-71.60191,41.1596],[-71.60216,41.15963],[-71.60223,41.16002],[-71.60215,41.16011],[-71.60219,41.16027],[-71.60233,41.16028],[-71.60243,41.16037]]}},{"type":"Feature","properties":{"osm":415574715,"name":"","highway":"path"},"geometry":{"type":"LineString","coordinates":[[-71.59427,41.16895],[-71.59448,41.16898],[-71.59495,41.16903],[-71.59518,41.16905],[-71.59568,41.1691],[-71.59604,41.16914],[-71.59681,41.16922],[-71.59693,41.16919],[-71.59702,41.16912],[-71.5971,41.169],[-71.59712,41.1686],[-71.59713,41.16849],[-71.5971,41.1684],[-71.59698,41.16835],[-71.59686,41.16833],[-71.59561,41.16817],[-71.59556,41.16818],[-71.59523,41.16822],[-71.59507,41.16832],[-71.59505,41.16842],[-71.59507,41.16851],[-71.59522,41.16863],[-71.59539,41.16869],[-71.59556,41.16873],[-71.59568,41.16879],[-71.59572,41.16892],[-71.59568,41.1691]]}},{"type":"Feature","properties":{"osm":415574719,"name":"","highway":"path"},"geometry":{"type":"LineString","coordinates":[[-71.58895,41.16632],[-71.5888,41.1665],[-71.58908,41.16659],[-71.58912,41.16647]]}},{"type":"Feature","properties":{"osm":415574720,"name":"","highway":"path"},"geometry":{"type":"LineString","coordinates":[[-71.58748,41.16193],[-71.58784,41.16186],[-71.58797,41.16189],[-71.58809,41.16184],[-71.58821,41.16208],[-71.58838,41.16209],[-71.58837,41.16198],[-71.58852,41.16191],[-71.58862,41.16197],[-71.58875,41.16195],[-71.58896,41.16206],[-71.58892,41.16219],[-71.58918,41.16214],[-71.58939,41.16217],[-71.58958,41.16209],[-71.58976,41.16212],[-71.58966,41.16236],[-71.58982,41.16283]]}},{"type":"Feature","properties":{"osm":415574722,"name":"","highway":"path"},"geometry":{"type":"LineString","coordinates":[[-71.60178,41.15844],[-71.60181,41.15826],[-71.60172,41.15814],[-71.60177,41.15793],[-71.60173,41.15781],[-71.60178,41.15772],[-71.60174,41.15764],[-71.6016,41.15757],[-71.60188,41.15751],[-71.60215,41.15761]]}},{"type":"Feature","properties":{"osm":415574723,"name":"","highway":"path"},"geometry":{"type":"LineString","coordinates":[[-71.59438,41.16736],[-71.59444,41.16743],[-71.59457,41.16747],[-71.59474,41.16746],[-71.5949,41.16742],[-71.59503,41.16731],[-71.5951,41.16724],[-71.59554,41.16707],[-71.59561,41.16704],[-71.5959,41.16708],[-71.59606,41.16711],[-71.59621,41.16643],[-71.59654,41.16648],[-71.59657,41.16654]]}},{"type":"Feature","properties":{"osm":415574724,"name":"","highway":"path"},"geometry":{"type":"LineString","coordinates":[[-71.59001,41.16514],[-71.58995,41.16525],[-71.58993,41.16548],[-71.58998,41.16568],[-71.58987,41.16601],[-71.58971,41.16611],[-71.58955,41.16632],[-71.58912,41.16647],[-71.58905,41.16632],[-71.58895,41.16632],[-71.58881,41.16631],[-71.58844,41.16614],[-71.58832,41.16597],[-71.58831,41.16581],[-71.58854,41.1657],[-71.58863,41.16562],[-71.58872,41.16558],[-71.5887,41.16542],[-71.58881,41.16538],[-71.58908,41.16548],[-71.58916,41.16546],[-71.58924,41.1653],[-71.58949,41.16533],[-71.58956,41.16541],[-71.58964,41.16543],[-71.58971,41.1654],[-71.58975,41.16529],[-71.58995,41.16525]]}},{"type":"Feature","properties":{"osm":415574726,"name":"","highway":"path"},"geometry":{"type":"LineString","coordinates":[[-71.58168,41.15996],[-71.58213,41.16042],[-71.58211,41.1606],[-71.58198,41.16079],[-71.58159,41.16124],[-71.58154,41.16137],[-71.58144,41.16138]]}},{"type":"Feature","properties":{"osm":415574729,"name":"","highway":"path"},"geometry":{"type":"LineString","coordinates":[[-71.5838,41.16143],[-71.58398,41.16159],[-71.58441,41.16173],[-71.58455,41.16174],[-71.58462,41.16168],[-71.585,41.16166],[-71.58511,41.16173],[-71.58514,41.16175],[-71.58527,41.16172],[-71.58534,41.16163],[-71.5852,41.16146],[-71.58517,41.1613],[-71.58458,41.16123],[-71.58447,41.16116],[-71.58407,41.16107]]}},{"type":"Feature","properties":{"osm":415574730,"name":"","highway":"path"},"geometry":{"type":"LineString","coordinates":[[-71.58689,41.14891],[-71.58654,41.14889],[-71.5864,41.14886],[-71.58623,41.14879],[-71.58606,41.14869],[-71.58592,41.14863],[-71.58584,41.14863],[-71.58575,41.14865],[-71.58568,41.14868],[-71.58557,41.14878],[-71.58548,41.14886],[-71.58526,41.14902],[-71.58521,41.14911],[-71.58519,41.14934],[-71.58519,41.14943]]}},{"type":"Feature","properties":{"osm":415574731,"name":"","highway":"path"},"geometry":{"type":"LineString","coordinates":[[-71.60525,41.15741],[-71.6043,41.15738],[-71.60419,41.15741],[-71.60373,41.15745],[-71.60366,41.15757],[-71.60343,41.15753],[-71.60313,41.15753],[-71.60295,41.15748],[-71.60283,41.15753],[-71.60277,41.1577],[-71.60248,41.15774],[-71.60232,41.15766],[-71.60215,41.15761]]}},{"type":"Feature","properties":{"osm":415574733,"name":"","highway":"path"},"geometry":{"type":"LineString","coordinates":[[-71.58832,41.16597],[-71.58818,41.16624],[-71.58799,41.16622]]}},{"type":"Feature","properties":{"osm":415574734,"name":"","highway":"path"},"geometry":{"type":"LineString","coordinates":[[-71.59442,41.16692],[-71.59452,41.1669],[-71.59454,41.16681],[-71.59445,41.16672]]}},{"type":"Feature","properties":{"osm":415574735,"name":"","highway":"path"},"geometry":{"type":"LineString","coordinates":[[-71.5887,41.16542],[-71.58841,41.16539]]}},{"type":"Feature","properties":{"osm":415574739,"name":"","highway":"path"},"geometry":{"type":"LineString","coordinates":[[-71.58908,41.16659],[-71.58921,41.16673],[-71.58927,41.16695],[-71.58939,41.16703],[-71.58964,41.16728],[-71.58961,41.1675],[-71.58969,41.1677],[-71.58954,41.16787]]}},{"type":"Feature","properties":{"osm":415574740,"name":"","highway":"path"},"geometry":{"type":"LineString","coordinates":[[-71.55958,41.21505],[-71.55974,41.2151],[-71.5599,41.21526],[-71.55985,41.21544],[-71.55999,41.2156]]}},{"type":"Feature","properties":{"osm":415574741,"name":"","highway":"path"},"geometry":{"type":"LineString","coordinates":[[-71.56072,41.21758],[-71.56057,41.2175],[-71.56018,41.2174],[-71.56007,41.21737],[-71.55998,41.21718],[-71.55985,41.21709],[-71.55979,41.21694],[-71.55935,41.21671],[-71.55934,41.21653],[-71.55952,41.21643],[-71.55955,41.2162],[-71.55955,41.21618],[-71.55953,41.21605]]}},{"type":"Feature","properties":{"osm":415574742,"name":"","highway":"path"},"geometry":{"type":"LineString","coordinates":[[-71.56041,41.2207],[-71.5607,41.22083],[-71.56117,41.22118],[-71.56126,41.22128],[-71.56142,41.2214],[-71.56148,41.22147]]}},{"type":"Feature","properties":{"osm":415574743,"name":"","highway":"path"},"geometry":{"type":"LineString","coordinates":[[-71.59682,41.16816],[-71.5967,41.16816],[-71.59656,41.16812],[-71.59642,41.16805],[-71.59626,41.16805],[-71.59612,41.16801],[-71.59604,41.168],[-71.59599,41.16797],[-71.59593,41.16792],[-71.59583,41.16789],[-71.59578,41.16785],[-71.59575,41.16782],[-71.59576,41.16775],[-71.59589,41.16763],[-71.59595,41.16745],[-71.59575,41.16724]]}},{"type":"Feature","properties":{"osm":415574744,"name":"","highway":"path"},"geometry":{"type":"LineString","coordinates":[[-71.58511,41.16173],[-71.58506,41.16189],[-71.58524,41.16209],[-71.58518,41.16221],[-71.58498,41.16234],[-71.58488,41.16255],[-71.58494,41.16266],[-71.5849,41.16273]]}},{"type":"Feature","properties":{"osm":415574746,"name":"","highway":"path"},"geometry":{"type":"LineString","coordinates":[[-71.56072,41.21758],[-71.56071,41.21749],[-71.56068,41.21727],[-71.56066,41.21686],[-71.56071,41.21674],[-71.56063,41.21648],[-71.5606,41.2163],[-71.5603,41.21622],[-71.56017,41.21619],[-71.56009,41.21623],[-71.55994,41.21625],[-71.55988,41.21619],[-71.55955,41.21618],[-71.55889,41.21619],[-71.55821,41.2162],[-71.55766,41.21621],[-71.55742,41.21619],[-71.55726,41.21612],[-71.55713,41.21598],[-71.5571,41.21594],[-71.55705,41.21573],[-71.5569,41.21546],[-71.55681,41.21534],[-71.5568,41.21525],[-71.55663,41.21515],[-71.55663,41.21511],[-71.55671,41.215],[-71.55678,41.21483],[-71.55683,41.21481],[-71.55704,41.21478],[-71.55709,41.21476]]}},{"type":"Feature","properties":{"osm":415574747,"name":"","highway":"path"},"geometry":{"type":"LineString","coordinates":[[-71.60295,41.15748],[-71.60312,41.1572],[-71.60324,41.15697],[-71.60329,41.15682],[-71.60355,41.15665],[-71.60368,41.15664],[-71.60379,41.15672],[-71.60393,41.15673],[-71.60399,41.15687],[-71.60389,41.15696],[-71.60398,41.15713],[-71.60397,41.15719],[-71.6039,41.15723],[-71.60388,41.15729],[-71.60372,41.15736],[-71.60373,41.15745]]}},{"type":"Feature","properties":{"osm":415574748,"name":"","highway":"path"},"geometry":{"type":"LineString","coordinates":[[-71.58734,41.16484],[-71.58704,41.16542],[-71.58706,41.16558],[-71.58675,41.16621],[-71.5866,41.16676]]}},{"type":"Feature","properties":{"osm":415802411,"name":"","highway":"path"},"geometry":{"type":"LineString","coordinates":[[-71.6055,41.15475],[-71.60561,41.15474],[-71.60567,41.15475],[-71.60577,41.15479],[-71.60582,41.15479],[-71.60589,41.15476],[-71.6061,41.15465],[-71.60631,41.15455],[-71.6067,41.15454],[-71.60686,41.15443],[-71.60684,41.15419],[-71.60682,41.15398],[-71.60681,41.1539],[-71.60692,41.15359],[-71.60687,41.15328],[-71.60705,41.1528],[-71.60747,41.15233],[-71.60772,41.15219],[-71.60812,41.15225],[-71.60859,41.15206],[-71.60853,41.1518],[-71.60849,41.15171],[-71.60834,41.1516],[-71.60833,41.15156]]}},{"type":"Feature","properties":{"osm":415802412,"name":"","highway":"footway"},"geometry":{"type":"LineString","coordinates":[[-71.58156,41.18431],[-71.58189,41.18456]]}},{"type":"Feature","properties":{"osm":422263556,"name":"","highway":"path"},"geometry":{"type":"LineString","coordinates":[[-71.5588,41.1522],[-71.55866,41.15204],[-71.55848,41.15197],[-71.55838,41.15191],[-71.55827,41.15179],[-71.55829,41.15171]]}},{"type":"Feature","properties":{"osm":422263562,"name":"","highway":"path"},"geometry":{"type":"LineString","coordinates":[[-71.55498,41.15245],[-71.55488,41.15242],[-71.55479,41.15234],[-71.55477,41.15232]]}},{"type":"Feature","properties":{"osm":422263564,"name":"","highway":"path"},"geometry":{"type":"LineString","coordinates":[[-71.55528,41.1529],[-71.55525,41.15279],[-71.5552,41.15273],[-71.55513,41.15265],[-71.55498,41.15245],[-71.55504,41.15243]]}},{"type":"Feature","properties":{"osm":607633685,"name":"","highway":"path"},"geometry":{"type":"LineString","coordinates":[[-71.56847,41.18867],[-71.56874,41.18871],[-71.56905,41.18876],[-71.56926,41.18888]]}},{"type":"Feature","properties":{"osm":614506936,"name":"","highway":"footway"},"geometry":{"type":"LineString","coordinates":[[-71.5805,41.16945],[-71.58019,41.16948],[-71.57996,41.1695]]}},{"type":"Feature","properties":{"osm":614506944,"name":"","highway":"footway"},"geometry":{"type":"LineString","coordinates":[[-71.57965,41.16932],[-71.57968,41.16929],[-71.57978,41.16928],[-71.57982,41.16923],[-71.58024,41.16919],[-71.58033,41.16919],[-71.58036,41.1692],[-71.58038,41.16921],[-71.58042,41.16922],[-71.58047,41.16921]]}},{"type":"Feature","properties":{"osm":614506945,"name":"","highway":"footway"},"geometry":{"type":"LineString","coordinates":[[-71.58017,41.16937],[-71.58018,41.16944],[-71.58019,41.16948],[-71.5802,41.16956],[-71.58022,41.1697]]}},{"type":"Feature","properties":{"osm":614506946,"name":"","highway":"footway"},"geometry":{"type":"LineString","coordinates":[[-71.57975,41.16954],[-71.57984,41.16953],[-71.57983,41.16942],[-71.57982,41.16938],[-71.57975,41.16938]]}},{"type":"Feature","properties":{"osm":614506947,"name":"","highway":"footway"},"geometry":{"type":"LineString","coordinates":[[-71.5805,41.16932],[-71.5805,41.16936],[-71.58049,41.16937],[-71.58048,41.16937],[-71.58038,41.16938],[-71.58033,41.16936],[-71.58028,41.16936],[-71.58017,41.16937],[-71.5799,41.1694],[-71.57983,41.16942]]}},{"type":"Feature","properties":{"osm":614622581,"name":"","highway":"path"},"geometry":{"type":"LineString","coordinates":[[-71.55918,41.21417],[-71.55906,41.2142],[-71.55896,41.21421],[-71.55881,41.21421],[-71.55874,41.21423],[-71.55871,41.21425],[-71.55867,41.21425],[-71.55863,41.21424],[-71.55856,41.21419],[-71.55841,41.21417],[-71.55823,41.21413],[-71.55815,41.21412],[-71.55805,41.21412],[-71.558,41.21416],[-71.55775,41.2142],[-71.55767,41.21421],[-71.55761,41.21419],[-71.55753,41.21418],[-71.55747,41.21418],[-71.55743,41.21417],[-71.55722,41.21417],[-71.55719,41.21415],[-71.5571,41.21408],[-71.55704,41.21407],[-71.55697,41.21407],[-71.55673,41.21417],[-71.55648,41.21442],[-71.5563,41.21461],[-71.55629,41.21471],[-71.55634,41.21475],[-71.55637,41.21488],[-71.55634,41.21492],[-71.55651,41.21578],[-71.55648,41.21596],[-71.55661,41.2163],[-71.55677,41.21651],[-71.55693,41.21683],[-71.55725,41.21714],[-71.5576,41.21737],[-71.55786,41.21762],[-71.55797,41.21768],[-71.55806,41.21776],[-71.55824,41.21777],[-71.55885,41.21791],[-71.55928,41.21815],[-71.55943,41.21842],[-71.55931,41.2185],[-71.55937,41.21891],[-71.5594,41.21897],[-71.55936,41.21914],[-71.55954,41.2193],[-71.55961,41.21943],[-71.55974,41.21947],[-71.55997,41.21982],[-71.56015,41.22024],[-71.56019,41.22048],[-71.56041,41.2207],[-71.56077,41.22127],[-71.56085,41.22155],[-71.561,41.22196],[-71.56118,41.22223],[-71.56121,41.22227],[-71.56123,41.22232],[-71.56125,41.22236],[-71.56128,41.22238],[-71.5613,41.22239]]}},{"type":"Feature","properties":{"osm":614622582,"name":"","highway":"path"},"geometry":{"type":"LineString","coordinates":[[-71.55689,41.20878],[-71.55693,41.20881],[-71.5571,41.20885],[-71.55713,41.20888],[-71.55713,41.20894],[-71.55709,41.20898],[-71.55706,41.20898],[-71.55693,41.20894],[-71.55681,41.20893],[-71.55681,41.20895],[-71.55691,41.20906],[-71.55693,41.20911],[-71.55684,41.20918],[-71.55679,41.2092],[-71.55673,41.20921],[-71.55658,41.20918],[-71.55639,41.20917],[-71.55626,41.20917],[-71.55608,41.20919]]}},{"type":"Feature","properties":{"osm":614622583,"name":"","highway":"path"},"geometry":{"type":"LineString","coordinates":[[-71.55693,41.20868],[-71.55692,41.2087],[-71.5569,41.20874],[-71.55689,41.20878],[-71.55687,41.2088],[-71.5568,41.20886],[-71.55675,41.20888],[-71.55664,41.20888],[-71.55649,41.20886],[-71.55639,41.20884],[-71.55629,41.2088],[-71.55623,41.20879]]}},{"type":"Feature","properties":{"osm":614622584,"name":"","highway":"path"},"geometry":{"type":"LineString","coordinates":[[-71.55665,41.20994],[-71.55665,41.20992],[-71.55671,41.20982],[-71.55671,41.2098],[-71.55667,41.20967],[-71.55669,41.20961],[-71.55672,41.20944],[-71.55673,41.20942],[-71.55678,41.2094],[-71.55686,41.20933],[-71.55692,41.20931],[-71.55713,41.20932],[-71.55714,41.20934],[-71.55717,41.20934],[-71.55734,41.20936],[-71.55739,41.20936],[-71.55746,41.20934],[-71.55772,41.20934],[-71.55777,41.20932],[-71.55779,41.20928],[-71.55779,41.20925],[-71.55778,41.20924],[-71.55774,41.20918],[-71.55767,41.20912],[-71.55764,41.20909],[-71.55758,41.209],[-71.55751,41.2089],[-71.55746,41.20881],[-71.55742,41.20878],[-71.55739,41.20873],[-71.55729,41.20865],[-71.55727,41.20865],[-71.55716,41.20865],[-71.55693,41.20868],[-71.55682,41.20869],[-71.55673,41.20869],[-71.55664,41.20868],[-71.55662,41.20867],[-71.55658,41.20866],[-71.55637,41.20854],[-71.55622,41.20849],[-71.55619,41.20846],[-71.55614,41.20845],[-71.5561,41.20844]]}},{"type":"Feature","properties":{"osm":614886092,"name":"","highway":"path"},"geometry":{"type":"LineString","coordinates":[[-71.55766,41.21621],[-71.55765,41.21641],[-71.55802,41.21703],[-71.5589,41.21769],[-71.55936,41.21765],[-71.55985,41.21764],[-71.55992,41.21759],[-71.55974,41.21747],[-71.55973,41.21718],[-71.55985,41.21709]]}},{"type":"Feature","properties":{"osm":614886095,"name":"","highway":"path"},"geometry":{"type":"LineString","coordinates":[[-71.57607,41.21282],[-71.57624,41.21282],[-71.57631,41.21286],[-71.57636,41.21291],[-71.57641,41.21296],[-71.57652,41.21299],[-71.57664,41.21301]]}},{"type":"Feature","properties":{"osm":614886097,"name":"","highway":"path"},"geometry":{"type":"LineString","coordinates":[[-71.57441,41.2129],[-71.57571,41.21268],[-71.57588,41.2127],[-71.57604,41.21278],[-71.57607,41.21282],[-71.57612,41.21289],[-71.57616,41.21306],[-71.57608,41.21322],[-71.57595,41.21341],[-71.57591,41.21354],[-71.57592,41.21369],[-71.57597,41.21387],[-71.57595,41.21404],[-71.57588,41.21422],[-71.5759,41.21449]]}},{"type":"Feature","properties":{"osm":614886100,"name":"","highway":"path"},"geometry":{"type":"LineString","coordinates":[[-71.57127,41.21751],[-71.57171,41.21756],[-71.57245,41.21759],[-71.57262,41.2176],[-71.57312,41.21759],[-71.57336,41.2176],[-71.57376,41.21758],[-71.57427,41.21762],[-71.57437,41.21765],[-71.57448,41.21765],[-71.57465,41.21769],[-71.57609,41.21811],[-71.57652,41.2181]]}},{"type":"Feature","properties":{"osm":614886133,"name":"","highway":"path"},"geometry":{"type":"LineString","coordinates":[[-71.59364,41.18956],[-71.59372,41.18964],[-71.59402,41.1898]]}},{"type":"Feature","properties":{"osm":614886136,"name":"","highway":"footway"},"geometry":{"type":"LineString","coordinates":[[-71.59111,41.19628],[-71.59118,41.19632],[-71.59122,41.19636],[-71.59127,41.19645],[-71.59133,41.19651],[-71.5914,41.19661],[-71.59157,41.19679],[-71.59165,41.1969],[-71.59171,41.19709],[-71.59184,41.19725],[-71.59191,41.19731],[-71.59215,41.1974],[-71.59222,41.19744],[-71.59233,41.19757],[-71.59234,41.19759],[-71.59235,41.19763]]}},{"type":"Feature","properties":{"osm":646524028,"name":"","highway":"path"},"geometry":{"type":"LineString","coordinates":[[-71.59524,41.16206],[-71.59536,41.16205],[-71.59565,41.16189],[-71.59572,41.16184],[-71.59588,41.16177],[-71.59605,41.16172],[-71.59609,41.16169],[-71.59609,41.16163],[-71.596,41.16114],[-71.59595,41.16102],[-71.59594,41.16094],[-71.59594,41.16085],[-71.59594,41.16041],[-71.59593,41.16037],[-71.59589,41.16035],[-71.59581,41.16034],[-71.59576,41.16031],[-71.5957,41.16025]]}},{"type":"Feature","properties":{"osm":646524033,"name":"","highway":"path"},"geometry":{"type":"LineString","coordinates":[[-71.59565,41.16189],[-71.59554,41.16177],[-71.59541,41.16174],[-71.59535,41.16173],[-71.59526,41.16174],[-71.59521,41.16174],[-71.59516,41.16171],[-71.5951,41.16165],[-71.59504,41.16162],[-71.59498,41.16158],[-71.59501,41.16149],[-71.595,41.16141],[-71.59495,41.16137],[-71.59486,41.16138],[-71.59465,41.16145],[-71.59457,41.16143],[-71.5945,41.16126],[-71.59451,41.1612]]}},{"type":"Feature","properties":{"osm":694153116,"name":"","highway":"path"},"geometry":{"type":"LineString","coordinates":[[-71.56546,41.16013],[-71.56524,41.16031],[-71.56436,41.16024]]}},{"type":"Feature","properties":{"osm":851414193,"name":"Black Rock Road","highway":"path"},"geometry":{"type":"LineString","coordinates":[[-71.59121,41.14906],[-71.5912,41.14907],[-71.59114,41.14916],[-71.59106,41.1493],[-71.59101,41.14944],[-71.59095,41.14956],[-71.59093,41.14964],[-71.59091,41.14972],[-71.59091,41.14982],[-71.59093,41.14995],[-71.59092,41.14999],[-71.59089,41.15006],[-71.59082,41.15011],[-71.59076,41.15016],[-71.59068,41.15025],[-71.59066,41.15034],[-71.59056,41.15052],[-71.59043,41.15084],[-71.5904,41.15098],[-71.59038,41.15109],[-71.59035,41.15117],[-71.59028,41.15127],[-71.59027,41.15131],[-71.59021,41.15143],[-71.5902,41.15153],[-71.59019,41.15162],[-71.59015,41.15178],[-71.59013,41.15184],[-71.59008,41.15196],[-71.59006,41.1521],[-71.59004,41.15218],[-71.59001,41.15225],[-71.59,41.15241],[-71.59001,41.15248],[-71.59005,41.15257],[-71.59007,41.15266],[-71.5901,41.15277],[-71.59011,41.15288],[-71.59012,41.15298],[-71.59012,41.15307],[-71.59011,41.15312],[-71.59011,41.15318],[-71.59011,41.15332],[-71.59014,41.15344],[-71.59013,41.15363],[-71.59009,41.15383],[-71.59005,41.15392],[-71.59002,41.15399],[-71.59,41.1541],[-71.59002,41.15419],[-71.58996,41.15427],[-71.58993,41.15436],[-71.58992,41.15445],[-71.58996,41.15453],[-71.59001,41.15457],[-71.59006,41.15464],[-71.5901,41.15478],[-71.59015,41.15485],[-71.5902,41.15491],[-71.59029,41.15501],[-71.59045,41.15518],[-71.59049,41.15526],[-71.59052,41.15533],[-71.59061,41.15553],[-71.59062,41.1556],[-71.59064,41.15568],[-71.59064,41.15579],[-71.59062,41.15588],[-71.59062,41.15599],[-71.59062,41.15608],[-71.59062,41.15612],[-71.59064,41.15619],[-71.59066,41.15621],[-71.59068,41.15627],[-71.59073,41.15635],[-71.59078,41.15638],[-71.59084,41.15641],[-71.59088,41.15646],[-71.59091,41.15652],[-71.5909,41.15661],[-71.59089,41.15666],[-71.5909,41.15671],[-71.59093,41.15677],[-71.59094,41.15686],[-71.59094,41.15693],[-71.59091,41.15709],[-71.59088,41.15721],[-71.5909,41.15732],[-71.59092,41.15737],[-71.59099,41.15752],[-71.59104,41.15753],[-71.59109,41.15758],[-71.59113,41.15763],[-71.59118,41.1577],[-71.59127,41.15784],[-71.59132,41.15792],[-71.59138,41.15799],[-71.5914,41.15808],[-71.59139,41.15818],[-71.5914,41.15829],[-71.59138,41.15834],[-71.59133,41.15839],[-71.59132,41.15845],[-71.59132,41.15849],[-71.59132,41.15855],[-71.59129,41.15866],[-71.59127,41.15876],[-71.59128,41.15884],[-71.59133,41.15891],[-71.59134,41.15895],[-71.59132,41.15899],[-71.59131,41.15906],[-71.5913,41.15916],[-71.59127,41.15924],[-71.59122,41.15933],[-71.5912,41.15945],[-71.59122,41.15951]]}},{"type":"Feature","properties":{"osm":961973116,"name":"","highway":"path"},"geometry":{"type":"LineString","coordinates":[[-71.57173,41.16727],[-71.57156,41.16722],[-71.57143,41.16718]]}},{"type":"Feature","properties":{"osm":961973117,"name":"","highway":"path"},"geometry":{"type":"LineString","coordinates":[[-71.57175,41.16721],[-71.57181,41.16717],[-71.57193,41.16714],[-71.57203,41.1671],[-71.57215,41.16703]]}},{"type":"Feature","properties":{"osm":1015249404,"name":"","highway":"cycleway"},"geometry":{"type":"LineString","coordinates":[[-71.55527,41.15305],[-71.55529,41.153],[-71.55528,41.1529],[-71.55516,41.1529],[-71.55507,41.15289],[-71.55498,41.15289],[-71.55493,41.15291],[-71.55493,41.15294],[-71.55499,41.15303]]}},{"type":"Feature","properties":{"osm":1015249412,"name":"","highway":"footway"},"geometry":{"type":"LineString","coordinates":[[-71.55218,41.15361],[-71.55203,41.1535],[-71.55204,41.1535]]}},{"type":"Feature","properties":{"osm":1015249413,"name":"","highway":"footway"},"geometry":{"type":"LineString","coordinates":[[-71.55218,41.15361],[-71.5523,41.15361],[-71.55242,41.15361]]}},{"type":"Feature","properties":{"osm":1015477943,"name":"","highway":"track"},"geometry":{"type":"LineString","coordinates":[[-71.58931,41.1943],[-71.58944,41.19443],[-71.58925,41.19453]]}},{"type":"Feature","properties":{"osm":1015477944,"name":"","highway":"track"},"geometry":{"type":"LineString","coordinates":[[-71.58947,41.19422],[-71.58955,41.19431]]}},{"type":"Feature","properties":{"osm":1015477949,"name":"","highway":"footway"},"geometry":{"type":"LineString","coordinates":[[-71.58947,41.19422],[-71.58944,41.19419],[-71.58935,41.19399],[-71.58927,41.194],[-71.5892,41.19397],[-71.58918,41.19394]]}},{"type":"Feature","properties":{"osm":1015477952,"name":"","highway":"footway"},"geometry":{"type":"LineString","coordinates":[[-71.58918,41.19394],[-71.58903,41.19397],[-71.58905,41.19401],[-71.58908,41.19409],[-71.58917,41.1943],[-71.58919,41.19436]]}},{"type":"Feature","properties":{"osm":1015477953,"name":"","highway":"footway"},"geometry":{"type":"LineString","coordinates":[[-71.58917,41.1943],[-71.58906,41.19435]]}},{"type":"Feature","properties":{"osm":1015477954,"name":"","highway":"footway"},"geometry":{"type":"LineString","coordinates":[[-71.58908,41.19409],[-71.58897,41.19413]]}},{"type":"Feature","properties":{"osm":1015477955,"name":"","highway":"footway"},"geometry":{"type":"LineString","coordinates":[[-71.58905,41.19401],[-71.58902,41.19402]]}},{"type":"Feature","properties":{"osm":1015477956,"name":"","highway":"footway"},"geometry":{"type":"LineString","coordinates":[[-71.58988,41.19427],[-71.58961,41.19441],[-71.58922,41.19461],[-71.58915,41.19464],[-71.58907,41.19466],[-71.58898,41.19469],[-71.58896,41.19472],[-71.58889,41.19476],[-71.58877,41.19483]]}},{"type":"Feature","properties":{"osm":1015477958,"name":"","highway":"footway"},"geometry":{"type":"LineString","coordinates":[[-71.58844,41.19464],[-71.58839,41.19459]]}},{"type":"Feature","properties":{"osm":1072755736,"name":"","highway":"path"},"geometry":{"type":"LineString","coordinates":[[-71.59507,41.16851],[-71.59496,41.16854],[-71.59484,41.16861],[-71.59482,41.16866],[-71.59486,41.16872],[-71.59481,41.16881],[-71.59489,41.16889],[-71.59495,41.16903]]}},{"type":"Feature","properties":{"osm":1072755737,"name":"","highway":"path"},"geometry":{"type":"LineString","coordinates":[[-71.59522,41.16863],[-71.59514,41.16868],[-71.59502,41.16869],[-71.59492,41.16873],[-71.59486,41.16872]]}},{"type":"Feature","properties":{"osm":1072755738,"name":"","highway":"path"},"geometry":{"type":"LineString","coordinates":[[-71.59422,41.16887],[-71.59427,41.16895],[-71.59423,41.16903],[-71.5943,41.16946],[-71.59443,41.16994],[-71.59438,41.17049]]}},{"type":"Feature","properties":{"osm":1072759024,"name":"","highway":"path"},"geometry":{"type":"LineString","coordinates":[[-71.59546,41.16751],[-71.59564,41.16749],[-71.59589,41.16763]]}},{"type":"Feature","properties":{"osm":1072759025,"name":"","highway":"path"},"geometry":{"type":"LineString","coordinates":[[-71.59593,41.16792],[-71.59593,41.16786],[-71.59591,41.16784],[-71.59583,41.16783],[-71.59578,41.16785]]}},{"type":"Feature","properties":{"osm":1072759026,"name":"","highway":"path"},"geometry":{"type":"LineString","coordinates":[[-71.59592,41.16723],[-71.59593,41.16716],[-71.59589,41.16713],[-71.5959,41.16708]]}},{"type":"Feature","properties":{"osm":1072761476,"name":"","highway":"path"},"geometry":{"type":"LineString","coordinates":[[-71.59533,41.16751],[-71.59542,41.16749]]}},{"type":"Feature","properties":{"osm":1086106507,"name":"","highway":"path"},"geometry":{"type":"LineString","coordinates":[[-71.56675,41.18148],[-71.56662,41.18152],[-71.56652,41.18155],[-71.56646,41.18161]]}},{"type":"Feature","properties":{"osm":1097314777,"name":"","highway":"path"},"geometry":{"type":"LineString","coordinates":[[-71.55613,41.21109],[-71.55616,41.21117],[-71.55638,41.21132],[-71.55643,41.21157],[-71.5566,41.21171],[-71.5566,41.21179],[-71.5566,41.2118],[-71.5565,41.21184],[-71.55642,41.21186],[-71.55638,41.21187],[-71.55621,41.21186],[-71.55601,41.21201],[-71.55602,41.2121],[-71.55596,41.21217],[-71.5559,41.21235],[-71.55596,41.21242],[-71.556,41.21254],[-71.55596,41.21263],[-71.55596,41.21269],[-71.55596,41.21272],[-71.55595,41.21276],[-71.55592,41.21282],[-71.55586,41.21286],[-71.55578,41.21287],[-71.55568,41.21286],[-71.55558,41.21286],[-71.55549,41.21282],[-71.55543,41.2128]]}},{"type":"Feature","properties":{"osm":1124789924,"name":"","highway":"footway"},"geometry":{"type":"LineString","coordinates":[[-71.57056,41.17802],[-71.57051,41.17807],[-71.57046,41.17812],[-71.57051,41.17815],[-71.57062,41.17821],[-71.57068,41.17824],[-71.57068,41.17824]]}},{"type":"Feature","properties":{"osm":1124789926,"name":"","highway":"footway"},"geometry":{"type":"LineString","coordinates":[[-71.57051,41.17807],[-71.5702,41.17789]]}},{"type":"Feature","properties":{"osm":1124789930,"name":"","highway":"footway"},"geometry":{"type":"LineString","coordinates":[[-71.57063,41.17836],[-71.57062,41.17833],[-71.57061,41.17829]]}},{"type":"Feature","properties":{"osm":1124789931,"name":"","highway":"footway"},"geometry":{"type":"LineString","coordinates":[[-71.57067,41.17832],[-71.57062,41.17833],[-71.57057,41.17833],[-71.57055,41.17832],[-71.57052,41.1783]]}},{"type":"Feature","properties":{"osm":1124789932,"name":"","highway":"footway"},"geometry":{"type":"LineString","coordinates":[[-71.57063,41.17836],[-71.57064,41.17836],[-71.57065,41.17835],[-71.57066,41.17835],[-71.57066,41.17834],[-71.57067,41.17833],[-71.57067,41.17832],[-71.57066,41.17831],[-71.57065,41.1783],[-71.57064,41.17829],[-71.57063,41.17829],[-71.57061,41.17829],[-71.5706,41.17829],[-71.57059,41.1783],[-71.57058,41.17831],[-71.57057,41.17832],[-71.57057,41.17833],[-71.57058,41.17834],[-71.57059,41.17835],[-71.5706,41.17836],[-71.57061,41.17836],[-71.57063,41.17836]]}},{"type":"Feature","properties":{"osm":1124789933,"name":"","highway":"footway"},"geometry":{"type":"LineString","coordinates":[[-71.5708,41.17814],[-71.5708,41.17815],[-71.5708,41.17816],[-71.5708,41.17818],[-71.5708,41.17819],[-71.5708,41.17821],[-71.57078,41.17822],[-71.57077,41.17823],[-71.57075,41.17824],[-71.57074,41.17824],[-71.57071,41.17825],[-71.5707,41.17825],[-71.57068,41.17824]]}},{"type":"Feature","properties":{"osm":1124789934,"name":"","highway":"footway"},"geometry":{"type":"LineString","coordinates":[[-71.57068,41.17824],[-71.57065,41.17827],[-71.57077,41.17834],[-71.57076,41.17835]]}},{"type":"Feature","properties":{"osm":1124789936,"name":"","highway":"footway"},"geometry":{"type":"LineString","coordinates":[[-71.57052,41.17828],[-71.57052,41.1783],[-71.57051,41.17832],[-71.5705,41.17833],[-71.57052,41.17835],[-71.57053,41.17837],[-71.57057,41.1784],[-71.57062,41.17842],[-71.57066,41.17844]]}},{"type":"Feature","properties":{"osm":1124789938,"name":"","highway":"footway"},"geometry":{"type":"LineString","coordinates":[[-71.57066,41.17835],[-71.57068,41.17836]]}},{"type":"Feature","properties":{"osm":1124789939,"name":"","highway":"footway"},"geometry":{"type":"LineString","coordinates":[[-71.57051,41.17815],[-71.57048,41.17818],[-71.57043,41.17824]]}},{"type":"Feature","properties":{"osm":1124789944,"name":"","highway":"footway"},"geometry":{"type":"LineString","coordinates":[[-71.57089,41.17817],[-71.57087,41.17815],[-71.5708,41.17815]]}},{"type":"Feature","properties":{"osm":1124877505,"name":"","highway":"footway"},"geometry":{"type":"LineString","coordinates":[[-71.57417,41.18109],[-71.57419,41.181]]}},{"type":"Feature","properties":{"osm":1124877506,"name":"","highway":"footway"},"geometry":{"type":"LineString","coordinates":[[-71.57419,41.181],[-71.57426,41.18098]]}},{"type":"Feature","properties":{"osm":1204418827,"name":"","highway":"footway"},"geometry":{"type":"LineString","coordinates":[[-71.55848,41.17331],[-71.55853,41.17329],[-71.55858,41.17326]]}},{"type":"Feature","properties":{"osm":1204418828,"name":"","highway":"footway"},"geometry":{"type":"LineString","coordinates":[[-71.55806,41.17279],[-71.5581,41.17277],[-71.55817,41.17274]]}},{"type":"Feature","properties":{"osm":1204418829,"name":"","highway":"footway"},"geometry":{"type":"LineString","coordinates":[[-71.55896,41.173],[-71.55904,41.17297],[-71.55911,41.17293]]}},{"type":"Feature","properties":{"osm":1207084090,"name":"","highway":"footway"},"geometry":{"type":"LineString","coordinates":[[-71.5826,41.18334],[-71.58256,41.18336],[-71.58239,41.18346],[-71.58232,41.18348],[-71.58222,41.18352],[-71.582,41.18368],[-71.58144,41.18413],[-71.5814,41.18416],[-71.5814,41.18418],[-71.58141,41.1842],[-71.58151,41.18427],[-71.58156,41.18431]]}},{"type":"Feature","properties":{"osm":1210144907,"name":"","highway":"path"},"geometry":{"type":"LineString","coordinates":[[-71.59177,41.14762],[-71.59176,41.14766],[-71.59172,41.14775],[-71.59171,41.14783],[-71.59173,41.14788],[-71.59174,41.14794],[-71.59171,41.14804],[-71.59165,41.14816],[-71.59158,41.14831],[-71.5915,41.14847],[-71.59141,41.14861],[-71.59134,41.14871],[-71.59128,41.14881],[-71.59126,41.14889],[-71.59125,41.14897],[-71.59123,41.14902],[-71.59121,41.14906]]}},{"type":"Feature","properties":{"osm":1210150683,"name":"","highway":"path"},"geometry":{"type":"LineString","coordinates":[[-71.5747,41.20502],[-71.57475,41.20488]]}},{"type":"Feature","properties":{"osm":1212639105,"name":"","highway":"footway"},"geometry":{"type":"LineString","coordinates":[[-71.55858,41.17326],[-71.55857,41.17322],[-71.55855,41.17317]]}},{"type":"Feature","properties":{"osm":1212639106,"name":"","highway":"footway"},"geometry":{"type":"LineString","coordinates":[[-71.55858,41.17326],[-71.55896,41.17372],[-71.55922,41.17409],[-71.5593,41.17421],[-71.55932,41.17423],[-71.55933,41.17424],[-71.55935,41.17424],[-71.55936,41.17424],[-71.55938,41.17424],[-71.55942,41.17423],[-71.55974,41.1741]]}},{"type":"Feature","properties":{"osm":1212639107,"name":"","highway":"footway"},"geometry":{"type":"LineString","coordinates":[[-71.55855,41.17317],[-71.55852,41.17316],[-71.55831,41.17291],[-71.55817,41.17274]]}},{"type":"Feature","properties":{"osm":1306392872,"name":"","highway":"track"},"geometry":{"type":"LineString","coordinates":[[-71.6017,41.18253],[-71.60185,41.18262],[-71.60191,41.18269],[-71.60197,41.18281],[-71.60204,41.18293]]}},{"type":"Feature","properties":{"osm":1307865728,"name":"","highway":"track"},"geometry":{"type":"LineString","coordinates":[[-71.57007,41.15857],[-71.57034,41.1587],[-71.57048,41.15878],[-71.57089,41.15907],[-71.57092,41.15912],[-71.57092,41.15916],[-71.57089,41.15921],[-71.5708,41.15938],[-71.57079,41.15943],[-71.57078,41.15947]]}},{"type":"Feature","properties":{"osm":1308023076,"name":"","highway":"track"},"geometry":{"type":"LineString","coordinates":[[-71.58875,41.1762],[-71.58885,41.17628],[-71.58892,41.17631],[-71.58901,41.17632],[-71.58909,41.17632],[-71.58929,41.17628]]}},{"type":"Feature","properties":{"osm":1308023103,"name":"","highway":"track"},"geometry":{"type":"LineString","coordinates":[[-71.59928,41.17924],[-71.59916,41.17955],[-71.59913,41.17962],[-71.59908,41.17971],[-71.59901,41.17985],[-71.59899,41.17998],[-71.59895,41.18017],[-71.5989,41.18036],[-71.59888,41.1805]]}},{"type":"Feature","properties":{"osm":1308273061,"name":"","highway":"track"},"geometry":{"type":"LineString","coordinates":[[-71.59549,41.17476],[-71.59556,41.17465],[-71.59566,41.17453],[-71.59569,41.17448],[-71.5957,41.17444],[-71.59571,41.17439],[-71.59574,41.17428],[-71.59578,41.17422],[-71.59584,41.17416],[-71.59589,41.17412],[-71.59605,41.174],[-71.59609,41.17394],[-71.59612,41.17387],[-71.59616,41.17356],[-71.59618,41.1733],[-71.59621,41.17314],[-71.5963,41.17298]]}},{"type":"Feature","properties":{"osm":1308273062,"name":"","highway":"track"},"geometry":{"type":"LineString","coordinates":[[-71.59772,41.1746],[-71.59773,41.17451],[-71.59777,41.17446],[-71.59785,41.17438],[-71.59788,41.17432],[-71.59788,41.17428],[-71.59786,41.17424],[-71.59769,41.17405],[-71.59763,41.17397],[-71.59761,41.17389],[-71.59762,41.17383],[-71.59767,41.17374],[-71.59773,41.17369],[-71.5978,41.17367],[-71.59784,41.17363],[-71.59792,41.17353]]}},{"type":"Feature","properties":{"osm":1308273086,"name":"","highway":"track"},"geometry":{"type":"LineString","coordinates":[[-71.6056,41.17512],[-71.60535,41.17529],[-71.60521,41.17537],[-71.60516,41.17539],[-71.60509,41.1754],[-71.60502,41.17541],[-71.60474,41.17541],[-71.60467,41.17539],[-71.60456,41.17535],[-71.60452,41.17535],[-71.6045,41.17536],[-71.60449,41.17538],[-71.6045,41.1754],[-71.60453,41.17542],[-71.60456,41.17543],[-71.60461,41.17545],[-71.60465,41.17544],[-71.60474,41.17541]]}},{"type":"Feature","properties":{"osm":1308273095,"name":"","highway":"path"},"geometry":{"type":"LineString","coordinates":[[-71.60746,41.17316],[-71.60751,41.17319],[-71.60756,41.17321],[-71.60762,41.17322],[-71.60766,41.17322],[-71.60769,41.17322],[-71.60777,41.17322],[-71.60779,41.17322]]}},{"type":"Feature","properties":{"osm":1308360125,"name":"Old Mill Lane","highway":"path"},"geometry":{"type":"LineString","coordinates":[[-71.59112,41.16201],[-71.59103,41.16184],[-71.59084,41.16167],[-71.59062,41.16158],[-71.59031,41.16149],[-71.59002,41.16144],[-71.58861,41.1613]]}},{"type":"Feature","properties":{"osm":1308360173,"name":"","highway":"path"},"geometry":{"type":"LineString","coordinates":[[-71.60986,41.16399],[-71.60996,41.16403],[-71.61007,41.16406],[-71.61017,41.16407],[-71.61026,41.16408],[-71.61036,41.16408],[-71.61055,41.16408],[-71.6106,41.16409],[-71.61064,41.16408],[-71.61067,41.16408],[-71.61071,41.16408],[-71.61073,41.16408]]}},{"type":"Feature","properties":{"osm":1308635149,"name":"","highway":"path"},"geometry":{"type":"LineString","coordinates":[[-71.5948,41.14938],[-71.59472,41.14942],[-71.59451,41.1495],[-71.59439,41.14957],[-71.59435,41.14963],[-71.59434,41.14966],[-71.59435,41.14968],[-71.59437,41.1497],[-71.59446,41.14973],[-71.59454,41.14976],[-71.59458,41.14981],[-71.59465,41.14992],[-71.59471,41.15005]]}},{"type":"Feature","properties":{"osm":1309978129,"name":"","highway":"path"},"geometry":{"type":"LineString","coordinates":[[-71.59193,41.16731],[-71.59138,41.16724]]}},{"type":"Feature","properties":{"osm":1309978130,"name":"","highway":"path"},"geometry":{"type":"LineString","coordinates":[[-71.59171,41.16528],[-71.59254,41.16554],[-71.5927,41.16581],[-71.59247,41.1661],[-71.59241,41.16619],[-71.59216,41.16657],[-71.59216,41.16675],[-71.5921,41.16684],[-71.59193,41.16731]]}},{"type":"Feature","properties":{"osm":1310755455,"name":"","highway":"footway"},"geometry":{"type":"LineString","coordinates":[[-71.55757,41.17203],[-71.55757,41.17196],[-71.55756,41.17181]]}},{"type":"Feature","properties":{"osm":1310755456,"name":"","highway":"footway"},"geometry":{"type":"LineString","coordinates":[[-71.55974,41.1741],[-71.55976,41.17414],[-71.55979,41.17418]]}},{"type":"Feature","properties":{"osm":1310755458,"name":"","highway":"footway"},"geometry":{"type":"LineString","coordinates":[[-71.5618,41.17369],[-71.56177,41.17377],[-71.56173,41.17385],[-71.56184,41.17387],[-71.56195,41.1739],[-71.56195,41.17383],[-71.56196,41.17376],[-71.56189,41.17373],[-71.5618,41.17369]]}},{"type":"Feature","properties":{"osm":1310755459,"name":"","highway":"footway"},"geometry":{"type":"LineString","coordinates":[[-71.55691,41.17197],[-71.5572,41.17194],[-71.5572,41.17197]]}},{"type":"Feature","properties":{"osm":1310755460,"name":"","highway":"footway"},"geometry":{"type":"LineString","coordinates":[[-71.55693,41.17212],[-71.55691,41.17211],[-71.55691,41.17197],[-71.55687,41.17163]]}},{"type":"Feature","properties":{"osm":1310755461,"name":"","highway":"footway"},"geometry":{"type":"LineString","coordinates":[[-71.55693,41.17221],[-71.55727,41.17219],[-71.55733,41.1722],[-71.55737,41.17221]]}},{"type":"Feature","properties":{"osm":1310755462,"name":"","highway":"footway"},"geometry":{"type":"LineString","coordinates":[[-71.55693,41.17221],[-71.55693,41.17217],[-71.55693,41.17212]]}},{"type":"Feature","properties":{"osm":1310755463,"name":"","highway":"footway"},"geometry":{"type":"LineString","coordinates":[[-71.55757,41.17209],[-71.55757,41.17203]]}},{"type":"Feature","properties":{"osm":1310755464,"name":"","highway":"footway"},"geometry":{"type":"LineString","coordinates":[[-71.55766,41.17183],[-71.55763,41.17183],[-71.5576,41.17182],[-71.55756,41.17181],[-71.55753,41.17177],[-71.55751,41.17165],[-71.55747,41.17142],[-71.55744,41.17131],[-71.5574,41.17116],[-71.55733,41.17099],[-71.55727,41.17085],[-71.55722,41.17076],[-71.55716,41.17067],[-71.55706,41.17054],[-71.557,41.17048],[-71.55686,41.17032],[-71.55675,41.1702],[-71.55668,41.17011],[-71.55663,41.17004],[-71.55649,41.16981],[-71.55643,41.16972],[-71.55635,41.16962],[-71.55627,41.16953],[-71.55625,41.1695],[-71.55611,41.16936],[-71.55605,41.1693],[-71.55592,41.16917],[-71.55576,41.16901],[-71.5556,41.16886]]}},{"type":"Feature","properties":{"osm":1310755465,"name":"","highway":"footway"},"geometry":{"type":"LineString","coordinates":[[-71.55737,41.17221],[-71.55744,41.17216],[-71.55748,41.17214],[-71.55757,41.17209]]}},{"type":"Feature","properties":{"osm":1310755466,"name":"","highway":"footway"},"geometry":{"type":"LineString","coordinates":[[-71.55723,41.17207],[-71.55724,41.1721],[-71.55726,41.17214],[-71.55727,41.17219]]}},{"type":"Feature","properties":{"osm":1313862497,"name":"","highway":"path"},"geometry":{"type":"LineString","coordinates":[[-71.60684,41.15419],[-71.60735,41.15388],[-71.60743,41.15362],[-71.60746,41.15343],[-71.60755,41.15334],[-71.60766,41.15332],[-71.60774,41.1533],[-71.60781,41.15309],[-71.60776,41.15292],[-71.6076,41.15272],[-71.60766,41.15266],[-71.60803,41.15259],[-71.60834,41.15258],[-71.60867,41.15249],[-71.60871,41.15244],[-71.60859,41.15206]]}},{"type":"Feature","properties":{"osm":1313862498,"name":"","highway":"path"},"geometry":{"type":"LineString","coordinates":[[-71.60743,41.15362],[-71.60748,41.15357],[-71.60765,41.15348],[-71.60766,41.15332]]}},{"type":"Feature","properties":{"osm":1313862499,"name":"","highway":"path"},"geometry":{"type":"LineString","coordinates":[[-71.60216,41.15963],[-71.60212,41.15938],[-71.60202,41.15933],[-71.602,41.15906],[-71.60183,41.15897]]}},{"type":"Feature","properties":{"osm":1313863163,"name":"","highway":"path"},"geometry":{"type":"LineString","coordinates":[[-71.56072,41.21758],[-71.5613,41.21757],[-71.5613,41.21704]]}},{"type":"Feature","properties":{"osm":1352574706,"name":"","highway":"path"},"geometry":{"type":"LineString","coordinates":[[-71.56838,41.18789],[-71.56817,41.1879],[-71.56815,41.1879],[-71.56811,41.18789],[-71.56809,41.18789],[-71.56807,41.18789],[-71.56803,41.18789],[-71.56799,41.18789],[-71.56796,41.1879],[-71.56795,41.1879],[-71.56794,41.1879],[-71.56785,41.18787],[-71.56775,41.18783],[-71.56769,41.18781],[-71.56762,41.18779],[-71.56756,41.18778],[-71.56751,41.18777],[-71.56746,41.18776],[-71.56738,41.18775],[-71.56733,41.18774],[-71.56723,41.18772],[-71.56718,41.18771],[-71.56713,41.18771]]}},{"type":"Feature","properties":{"osm":1416623050,"name":"Labyrinth","highway":"footway"},"geometry":{"type":"LineString","coordinates":[[-71.56517,41.21729],[-71.56532,41.21727],[-71.56536,41.2173],[-71.56544,41.21732],[-71.56555,41.21733],[-71.56565,41.21732],[-71.56577,41.21723],[-71.56583,41.21722],[-71.56588,41.2172],[-71.56593,41.21717],[-71.56596,41.21713],[-71.56596,41.21706],[-71.56593,41.21703],[-71.56587,41.21702],[-71.56578,41.21701],[-71.56571,41.21703],[-71.56568,41.21708],[-71.56569,41.21713],[-71.56571,41.21716],[-71.56575,41.21719],[-71.56577,41.21723],[-71.56552,41.2172],[-71.56541,41.21723],[-71.56532,41.21727]]}},{"type":"Feature","properties":{"osm":1421757180,"name":"Harrison Trail","highway":"path"},"geometry":{"type":"LineString","coordinates":[[-71.58404,41.17588],[-71.58417,41.1761],[-71.58422,41.17615],[-71.58422,41.17619],[-71.58434,41.1763],[-71.5845,41.17642],[-71.58454,41.17648],[-71.58455,41.17652],[-71.58455,41.17654],[-71.58445,41.17659],[-71.58427,41.17662],[-71.58411,41.17664],[-71.58385,41.17667],[-71.58336,41.17679],[-71.58328,41.17688],[-71.58318,41.17693],[-71.58309,41.17696],[-71.58298,41.17699],[-71.58277,41.17702],[-71.5825,41.17706],[-71.58243,41.17708],[-71.5825,41.17721],[-71.58257,41.17743],[-71.58267,41.1776],[-71.58273,41.17769],[-71.58277,41.17781],[-71.58283,41.1779],[-71.58293,41.17803],[-71.58303,41.17812],[-71.5831,41.17817],[-71.58325,41.17827],[-71.58336,41.17836],[-71.5835,41.17841],[-71.58359,41.17853],[-71.58369,41.17865],[-71.58377,41.1787],[-71.5839,41.17878],[-71.58405,41.17893],[-71.58435,41.1792],[-71.58438,41.17929],[-71.58455,41.17945],[-71.58475,41.17963],[-71.585,41.17986],[-71.58518,41.18002],[-71.58524,41.1801],[-71.58532,41.18018],[-71.58545,41.18024],[-71.58581,41.18061],[-71.58608,41.18064],[-71.58635,41.1808]]}},{"type":"Feature","properties":{"osm":1422189899,"name":"","highway":"path"},"geometry":{"type":"LineString","coordinates":[[-71.5768,41.1495],[-71.57671,41.14947],[-71.57662,41.14946],[-71.57653,41.14948],[-71.57642,41.14948],[-71.57632,41.14944],[-71.57628,41.14941],[-71.57628,41.14938],[-71.57624,41.14935],[-71.57619,41.14931],[-71.57617,41.14929],[-71.5762,41.14926],[-71.57617,41.14924],[-71.57616,41.14919],[-71.57617,41.14915],[-71.57615,41.14912],[-71.57617,41.14907],[-71.57617,41.14903],[-71.57612,41.14899],[-71.57607,41.14894],[-71.57604,41.14886],[-71.57603,41.14882],[-71.57603,41.14879],[-71.57601,41.14875],[-71.576,41.14872],[-71.57597,41.14867],[-71.57593,41.14863],[-71.57586,41.14855]]}},{"type":"Feature","properties":{"osm":1422191544,"name":"","highway":"footway"},"geometry":{"type":"LineString","coordinates":[[-71.55806,41.17279],[-71.55812,41.17287],[-71.5582,41.17297],[-71.55839,41.1732],[-71.55848,41.17331]]}},{"type":"Feature","properties":{"osm":1422191545,"name":"","highway":"footway"},"geometry":{"type":"LineString","coordinates":[[-71.55848,41.17331],[-71.55873,41.17362],[-71.55895,41.17392],[-71.55919,41.17425],[-71.55921,41.17428],[-71.55924,41.1743],[-71.55927,41.17431],[-71.55929,41.17432],[-71.55933,41.17433],[-71.55937,41.17433],[-71.55941,41.17432],[-71.55947,41.1743],[-71.55979,41.17418]]}},{"type":"Feature","properties":{"osm":1422191547,"name":"","highway":"footway"},"geometry":{"type":"LineString","coordinates":[[-71.55687,41.17163],[-71.55689,41.17161],[-71.55692,41.17159],[-71.55695,41.17158],[-71.55697,41.17158]]}},{"type":"Feature","properties":{"osm":1422191549,"name":"","highway":"footway"},"geometry":{"type":"LineString","coordinates":[[-71.55817,41.17274],[-71.55801,41.17254],[-71.5579,41.17241],[-71.55757,41.17209]]}},{"type":"Feature","properties":{"osm":1422191550,"name":"","highway":"footway"},"geometry":{"type":"LineString","coordinates":[[-71.55757,41.17203],[-71.55791,41.17179]]}},{"type":"Feature","properties":{"osm":1422191551,"name":"","highway":"footway"},"geometry":{"type":"LineString","coordinates":[[-71.55791,41.17179],[-71.55796,41.17176],[-71.55802,41.17172]]}},{"type":"Feature","properties":{"osm":1422357816,"name":"","highway":"footway"},"geometry":{"type":"LineString","coordinates":[[-71.55979,41.17418],[-71.56005,41.17407],[-71.56054,41.17387],[-71.56058,41.17385],[-71.56067,41.17383],[-71.56075,41.1738],[-71.56081,41.17379],[-71.56087,41.17378],[-71.561,41.17378],[-71.5612,41.17376],[-71.5614,41.17375],[-71.56146,41.17375],[-71.56153,41.17375],[-71.56159,41.17376],[-71.56162,41.17377],[-71.56165,41.17378],[-71.56168,41.1738],[-71.5617,41.17381],[-71.56173,41.17385]]}},{"type":"Feature","properties":{"osm":1422357817,"name":"","highway":"footway"},"geometry":{"type":"LineString","coordinates":[[-71.55974,41.1741],[-71.56062,41.17374],[-71.56064,41.17374],[-71.56068,41.17373],[-71.56072,41.17372],[-71.56076,41.17371],[-71.56084,41.1737],[-71.56139,41.17366],[-71.56142,41.17366],[-71.56145,41.17366],[-71.56146,41.17366],[-71.56154,41.17367],[-71.56159,41.17368],[-71.56166,41.17369],[-71.56168,41.17369],[-71.56171,41.17369],[-71.56175,41.1737],[-71.56178,41.17369],[-71.5618,41.17369]]}},{"type":"Feature","properties":{"osm":1422357818,"name":"","highway":"footway"},"geometry":{"type":"LineString","coordinates":[[-71.56173,41.17385],[-71.56174,41.17388],[-71.56175,41.17391],[-71.56175,41.17393],[-71.56175,41.17395],[-71.56151,41.17459]]}},{"type":"Feature","properties":{"osm":1422357819,"name":"","highway":"footway"},"geometry":{"type":"LineString","coordinates":[[-71.5618,41.17369],[-71.56182,41.17368],[-71.56184,41.17367],[-71.56186,41.17364],[-71.56189,41.17361],[-71.56193,41.17355],[-71.56204,41.17337]]}},{"type":"Feature","properties":{"osm":1422357820,"name":"","highway":"footway"},"geometry":{"type":"LineString","coordinates":[[-71.56195,41.1739],[-71.56191,41.17391],[-71.56189,41.17392],[-71.56188,41.17394],[-71.56178,41.1742],[-71.56166,41.17456]]}},{"type":"Feature","properties":{"osm":1422357821,"name":"","highway":"footway"},"geometry":{"type":"LineString","coordinates":[[-71.56196,41.17376],[-71.56199,41.17377],[-71.56203,41.17379],[-71.56207,41.17381],[-71.56217,41.17383],[-71.56248,41.17388],[-71.56278,41.17391]]}},{"type":"Feature","properties":{"osm":1422357822,"name":"","highway":"footway"},"geometry":{"type":"LineString","coordinates":[[-71.56196,41.17376],[-71.56196,41.17375],[-71.56196,41.17373],[-71.56196,41.17371],[-71.56197,41.1737],[-71.56197,41.17369],[-71.56198,41.17368],[-71.562,41.17367],[-71.56206,41.17358]]}},{"type":"Feature","properties":{"osm":1422357823,"name":"","highway":"footway"},"geometry":{"type":"LineString","coordinates":[[-71.55858,41.17326],[-71.55862,41.17324],[-71.55929,41.17294]]}},{"type":"Feature","properties":{"osm":1422357824,"name":"","highway":"footway"},"geometry":{"type":"LineString","coordinates":[[-71.55802,41.17172],[-71.55813,41.17163],[-71.55818,41.17159],[-71.55826,41.17152],[-71.55831,41.17147],[-71.55837,41.17139],[-71.5584,41.17134],[-71.55844,41.17127],[-71.55848,41.17117],[-71.55852,41.17107],[-71.55854,41.17097],[-71.55855,41.17093],[-71.55862,41.17073],[-71.55864,41.17066],[-71.55868,41.17046],[-71.55868,41.17043],[-71.55877,41.16981],[-71.55878,41.16975],[-71.5588,41.16955],[-71.5588,41.16953],[-71.55881,41.16934],[-71.55881,41.16906],[-71.55881,41.16904],[-71.5588,41.16896],[-71.55877,41.16875],[-71.55876,41.16869],[-71.55875,41.16861],[-71.55874,41.16854],[-71.55876,41.1684],[-71.55879,41.16828],[-71.55881,41.16816],[-71.55885,41.16799],[-71.55889,41.16779],[-71.5589,41.16774],[-71.55891,41.16769],[-71.55891,41.16759],[-71.55889,41.16749],[-71.55885,41.16735],[-71.55881,41.16724],[-71.5588,41.16717],[-71.55881,41.16711],[-71.55884,41.16704],[-71.5589,41.16694],[-71.55897,41.16687],[-71.55905,41.1668],[-71.55917,41.16672],[-71.55929,41.16664],[-71.55942,41.16657],[-71.55951,41.16654],[-71.55955,41.16653],[-71.56006,41.16638],[-71.56012,41.16636],[-71.56015,41.16635],[-71.56024,41.16632],[-71.56034,41.16628],[-71.56038,41.16627],[-71.56043,41.16624],[-71.56048,41.16621],[-71.56053,41.16618],[-71.56055,41.16616],[-71.56057,41.16614],[-71.5606,41.1661],[-71.56061,41.16606],[-71.56063,41.16601],[-71.56062,41.16595],[-71.56062,41.1659],[-71.5606,41.16583],[-71.56058,41.16576],[-71.56054,41.16564],[-71.56052,41.16558],[-71.5605,41.16549],[-71.56045,41.16533],[-71.56043,41.16526],[-71.56038,41.1651],[-71.56031,41.16487],[-71.56028,41.16477],[-71.56023,41.16454],[-71.56018,41.16432],[-71.56014,41.16417]]}},{"type":"Feature","properties":{"osm":1422357825,"name":"","highway":"footway"},"geometry":{"type":"LineString","coordinates":[[-71.56018,41.16432],[-71.56014,41.16432],[-71.56008,41.16433]]}},{"type":"Feature","properties":{"osm":1422357826,"name":"","highway":"footway"},"geometry":{"type":"LineString","coordinates":[[-71.56031,41.16487],[-71.56031,41.16485],[-71.56032,41.16484],[-71.56033,41.16483],[-71.56035,41.16482],[-71.56037,41.16481],[-71.5604,41.16479],[-71.56042,41.16474],[-71.56039,41.16459],[-71.5604,41.16458],[-71.56041,41.16455],[-71.56044,41.16451],[-71.56048,41.16447],[-71.56051,41.16444],[-71.56053,41.16441],[-71.56054,41.16437],[-71.56055,41.16433],[-71.56054,41.16429],[-71.56049,41.16409]]}},{"type":"Feature","properties":{"osm":1422357829,"name":"","highway":"footway"},"geometry":{"type":"LineString","coordinates":[[-71.55737,41.17221],[-71.5574,41.17222],[-71.55747,41.17224],[-71.55755,41.17228],[-71.5576,41.17231],[-71.55766,41.17235],[-71.55776,41.17244],[-71.55782,41.1725],[-71.55792,41.17263],[-71.55806,41.17279]]}},{"type":"Feature","properties":{"osm":1422395340,"name":"Long Lot Trail","highway":"path"},"geometry":{"type":"LineString","coordinates":[[-71.56718,41.21228],[-71.56678,41.2122],[-71.56642,41.21227],[-71.5661,41.21225],[-71.56563,41.21214],[-71.56518,41.21226],[-71.56506,41.21224],[-71.5649,41.21229],[-71.56453,41.21231],[-71.56439,41.21245],[-71.5643,41.21248],[-71.56422,41.21268],[-71.56401,41.2127],[-71.56386,41.21283],[-71.5633,41.2129],[-71.56314,41.21297],[-71.5628,41.21289],[-71.56258,41.21297],[-71.56247,41.21312],[-71.56233,41.21311],[-71.56229,41.21306],[-71.56228,41.21305],[-71.56219,41.213],[-71.56199,41.21305],[-71.56179,41.21298],[-71.56173,41.21288],[-71.56158,41.21288],[-71.56147,41.21294],[-71.56134,41.21287],[-71.56132,41.21282],[-71.56137,41.21282],[-71.56123,41.21269],[-71.56095,41.21262],[-71.5609,41.21247],[-71.56078,41.21232],[-71.56068,41.21239],[-71.56072,41.21248],[-71.56063,41.21261],[-71.56042,41.21257],[-71.56022,41.21239],[-71.56017,41.21226],[-71.56003,41.21225],[-71.55978,41.21233],[-71.55951,41.21229],[-71.5594,41.21235],[-71.55931,41.21232],[-71.55925,41.21223],[-71.55889,41.2123],[-71.55871,41.21232],[-71.55841,41.21227],[-71.55834,41.21226],[-71.55829,41.21222],[-71.5583,41.21218],[-71.55832,41.21208],[-71.55826,41.21187],[-71.55769,41.21154],[-71.55766,41.21148],[-71.55743,41.2115],[-71.55723,41.21158],[-71.55719,41.21154],[-71.55716,41.21166],[-71.55706,41.21171],[-71.55676,41.21179],[-71.5566,41.21179]]}},{"type":"Feature","properties":{"osm":1422395808,"name":"","highway":"path"},"geometry":{"type":"LineString","coordinates":[[-71.57205,41.21541],[-71.57211,41.21541],[-71.57222,41.21543],[-71.57229,41.21546],[-71.57236,41.21549],[-71.57246,41.21555],[-71.57251,41.21562],[-71.57254,41.21567],[-71.57258,41.21571]]}},{"type":"Feature","properties":{"osm":1422395811,"name":"","highway":"path"},"geometry":{"type":"LineString","coordinates":[[-71.57346,41.21574],[-71.57342,41.21576],[-71.57337,41.21576],[-71.57331,41.21575],[-71.57324,41.21577],[-71.57316,41.2158],[-71.57309,41.21579],[-71.57298,41.2158],[-71.57292,41.21581],[-71.57288,41.21581],[-71.57281,41.2158],[-71.57276,41.21577],[-71.57273,41.21575],[-71.57269,41.21573],[-71.57264,41.21572],[-71.5726,41.2157],[-71.57258,41.21571],[-71.57255,41.21572],[-71.57253,41.21574],[-71.5725,41.21574],[-71.57244,41.21573],[-71.5724,41.21573],[-71.57236,41.21571],[-71.5723,41.21568],[-71.57227,41.21567]]}},{"type":"Feature","properties":{"osm":1422397042,"name":"","highway":"path"},"geometry":{"type":"LineString","coordinates":[[-71.55706,41.21295],[-71.55712,41.21292],[-71.55714,41.21284],[-71.55719,41.21278]]}},{"type":"Feature","properties":{"osm":1422397043,"name":"","highway":"path"},"geometry":{"type":"LineString","coordinates":[[-71.5574,41.21244],[-71.55735,41.21247],[-71.55731,41.21253],[-71.55729,41.21254],[-71.5573,41.21258]]}},{"type":"Feature","properties":{"osm":1422397044,"name":"","highway":"path"},"geometry":{"type":"LineString","coordinates":[[-71.55745,41.21248],[-71.55753,41.21245]]}},{"type":"Feature","properties":{"osm":1422397045,"name":"","highway":"path"},"geometry":{"type":"LineString","coordinates":[[-71.55803,41.21269],[-71.55805,41.21293],[-71.55801,41.21298],[-71.55793,41.21301],[-71.55787,41.21306],[-71.55782,41.2131],[-71.55774,41.21313],[-71.55759,41.21326],[-71.55755,41.21336],[-71.55749,41.21338],[-71.55741,41.21337],[-71.55735,41.21334],[-71.55729,41.21328],[-71.55726,41.21321],[-71.55727,41.21312],[-71.55736,41.21309],[-71.55741,41.21304],[-71.55744,41.21294],[-71.55746,41.21278],[-71.55749,41.21264],[-71.55747,41.21252],[-71.55745,41.21248],[-71.55742,41.21247],[-71.5574,41.21244],[-71.55736,41.21242],[-71.55729,41.21238],[-71.55719,41.21235],[-71.557,41.21238],[-71.55685,41.21236],[-71.55678,41.21236],[-71.55673,41.21239],[-71.5567,41.21243],[-71.55665,41.21244],[-71.55659,41.21245],[-71.55655,41.21244],[-71.55656,41.21238],[-71.5565,41.21233],[-71.55649,41.2123],[-71.55649,41.21227],[-71.55648,41.21224],[-71.55647,41.21218],[-71.55644,41.21205],[-71.5564,41.21201],[-71.55639,41.21195],[-71.55642,41.2119],[-71.55642,41.21187],[-71.55642,41.21186]]}},{"type":"Feature","properties":{"osm":1422397046,"name":"","highway":"path"},"geometry":{"type":"LineString","coordinates":[[-71.55797,41.21222],[-71.55797,41.21226],[-71.55799,41.21235],[-71.558,41.21241],[-71.558,41.21257],[-71.55802,41.21261],[-71.55803,41.21266],[-71.55803,41.21269],[-71.55807,41.21269],[-71.55811,41.21269],[-71.55812,41.21263],[-71.55812,41.21261],[-71.55814,41.21257]]}},{"type":"Feature","properties":{"osm":1422397047,"name":"","highway":"path"},"geometry":{"type":"LineString","coordinates":[[-71.55841,41.21227],[-71.55841,41.21233],[-71.55842,41.21239],[-71.55843,41.21243],[-71.55845,41.21244],[-71.5585,41.21245],[-71.55853,41.21246],[-71.55853,41.21247],[-71.55853,41.2125],[-71.55847,41.21252],[-71.55835,41.21256],[-71.55825,41.21257],[-71.55819,41.21258],[-71.55814,41.21257],[-71.55815,41.21255],[-71.55812,41.21252],[-71.5581,41.2125],[-71.55808,41.21246],[-71.55807,41.21239],[-71.55807,41.21233],[-71.55807,41.21229],[-71.55808,41.21226],[-71.55806,41.21224],[-71.55803,41.21223],[-71.55799,41.21222],[-71.55797,41.21222],[-71.55798,41.2122],[-71.55798,41.21218],[-71.558,41.21216],[-71.55803,41.21216],[-71.55805,41.21216],[-71.55813,41.21217],[-71.5582,41.21216],[-71.55825,41.21218],[-71.5583,41.21218]]}},{"type":"Feature","properties":{"osm":1422398590,"name":"","highway":"path"},"geometry":{"type":"LineString","coordinates":[[-71.5567,41.21287],[-71.55663,41.21287],[-71.55657,41.21286],[-71.55653,41.21283],[-71.55644,41.21277],[-71.55639,41.21272],[-71.55639,41.21267],[-71.55638,41.21259]]}},{"type":"Feature","properties":{"osm":1422578776,"name":"","highway":"path"},"geometry":{"type":"LineString","coordinates":[[-71.55528,41.1722],[-71.55523,41.1722],[-71.55519,41.17221],[-71.55515,41.17221],[-71.55511,41.17219],[-71.55507,41.17219],[-71.55503,41.17218],[-71.55502,41.17217],[-71.55497,41.17217],[-71.55494,41.17216]]}},{"type":"Feature","properties":{"osm":1422578777,"name":"","highway":"path"},"geometry":{"type":"LineString","coordinates":[[-71.55494,41.17149],[-71.55501,41.17151],[-71.55505,41.17149]]}},{"type":"Feature","properties":{"osm":1422578778,"name":"","highway":"path"},"geometry":{"type":"LineString","coordinates":[[-71.5551,41.17166],[-71.55503,41.17167],[-71.55498,41.17166],[-71.55496,41.17162],[-71.55488,41.17153]]}},{"type":"Feature","properties":{"osm":1422578779,"name":"","highway":"path"},"geometry":{"type":"LineString","coordinates":[[-71.55505,41.17149],[-71.55503,41.17146],[-71.55497,41.17146],[-71.55494,41.17149],[-71.55488,41.17153],[-71.55485,41.17155],[-71.55486,41.17163],[-71.55489,41.17168],[-71.55492,41.17172],[-71.55496,41.17174],[-71.55502,41.17175],[-71.5551,41.17176],[-71.55513,41.17176]]}},{"type":"Feature","properties":{"osm":1422578780,"name":"","highway":"path"},"geometry":{"type":"LineString","coordinates":[[-71.55542,41.17195],[-71.55536,41.17193],[-71.5553,41.17191],[-71.55521,41.1719],[-71.55518,41.17188],[-71.55515,41.17184],[-71.55513,41.17176],[-71.5551,41.17166],[-71.55509,41.17163],[-71.55505,41.17149],[-71.55512,41.17144],[-71.55519,41.17143],[-71.55527,41.17146],[-71.55533,41.17151],[-71.55522,41.17159],[-71.55509,41.17163]]}},{"type":"Feature","properties":{"osm":1422578781,"name":"","highway":"path"},"geometry":{"type":"LineString","coordinates":[[-71.55551,41.17179],[-71.5555,41.17184],[-71.55545,41.17188],[-71.55542,41.17195],[-71.55548,41.17197],[-71.55552,41.17197],[-71.55555,41.17196],[-71.55557,41.17194],[-71.55558,41.17191],[-71.55557,41.17188],[-71.55554,41.17185],[-71.5555,41.17184]]}},{"type":"Feature","properties":{"osm":1422578782,"name":"","highway":"path"},"geometry":{"type":"LineString","coordinates":[[-71.55529,41.17174],[-71.5554,41.17177],[-71.55551,41.17179],[-71.55558,41.1718],[-71.55562,41.17179]]}},{"type":"Feature","properties":{"osm":1422578783,"name":"","highway":"path"},"geometry":{"type":"LineString","coordinates":[[-71.5556,41.17209],[-71.55557,41.17206],[-71.55549,41.17202],[-71.55544,41.17197],[-71.55542,41.17195],[-71.55539,41.17191],[-71.55532,41.17182],[-71.55529,41.17174],[-71.55528,41.17171],[-71.55522,41.17159]]}},{"type":"Feature","properties":{"osm":1422578784,"name":"","highway":"path"},"geometry":{"type":"LineString","coordinates":[[-71.55584,41.17203],[-71.55569,41.17207],[-71.55561,41.17209],[-71.5556,41.17209],[-71.5555,41.17214],[-71.55541,41.17217],[-71.55533,41.17219],[-71.55528,41.1722],[-71.55525,41.17218],[-71.55522,41.17214],[-71.5552,41.17213],[-71.55517,41.17212],[-71.55514,41.17214],[-71.55512,41.17215],[-71.55509,41.17216],[-71.55507,41.17215],[-71.55504,41.17214],[-71.555,41.17214],[-71.55496,41.17215],[-71.55494,41.17216],[-71.5549,41.17216],[-71.55485,41.17217],[-71.55482,41.17216],[-71.55479,41.17213],[-71.55477,41.17209],[-71.55474,41.17207],[-71.55468,41.17203],[-71.55464,41.17201],[-71.55463,41.17198],[-71.55461,41.17194],[-71.55456,41.1719],[-71.55451,41.17185],[-71.55444,41.1718],[-71.55435,41.17174],[-71.5543,41.17172],[-71.55425,41.17173],[-71.55404,41.17178]]}},{"type":"Feature","properties":{"osm":1422578785,"name":"","highway":"path"},"geometry":{"type":"LineString","coordinates":[[-71.55611,41.17226],[-71.55602,41.17228],[-71.55597,41.17226],[-71.55587,41.17214],[-71.55584,41.17209],[-71.55584,41.17203],[-71.55588,41.17197]]}},{"type":"Feature","properties":{"osm":1422578786,"name":"","highway":"path"},"geometry":{"type":"LineString","coordinates":[[-71.55567,41.17167],[-71.55558,41.1716],[-71.55552,41.17156],[-71.55546,41.17153],[-71.55533,41.17151],[-71.55536,41.17154],[-71.55545,41.17159],[-71.55549,41.17162],[-71.55552,41.17165],[-71.55557,41.17174],[-71.55561,41.17178],[-71.55562,41.17179],[-71.55564,41.17188],[-71.55565,41.17192],[-71.55564,41.17199],[-71.55561,41.17209]]}},{"type":"Feature","properties":{"osm":1422578787,"name":"","highway":"path"},"geometry":{"type":"LineString","coordinates":[[-71.55623,41.17233],[-71.55617,41.17229],[-71.55611,41.17226],[-71.55606,41.17224],[-71.55603,41.17219],[-71.55595,41.17205],[-71.55588,41.17197],[-71.55585,41.17194],[-71.55578,41.17183],[-71.55572,41.17176],[-71.55567,41.17167],[-71.55562,41.17157],[-71.55564,41.17148],[-71.55567,41.17139],[-71.55567,41.17133],[-71.55566,41.17127],[-71.55564,41.17118],[-71.55561,41.1711],[-71.5556,41.17104],[-71.55551,41.1709],[-71.55548,41.17087],[-71.55541,41.17082],[-71.55534,41.17078],[-71.5553,41.17075],[-71.55522,41.17066],[-71.55518,41.17063],[-71.55515,41.17061],[-71.55512,41.1706],[-71.55509,41.1706],[-71.55505,41.17061],[-71.555,41.17065],[-71.55497,41.17067],[-71.55496,41.1707],[-71.55496,41.17072],[-71.55497,41.17073],[-71.55499,41.17074],[-71.55503,41.17076],[-71.55505,41.17077],[-71.55507,41.17079],[-71.55509,41.17086],[-71.55509,41.17089],[-71.55511,41.17091],[-71.55512,41.17093],[-71.55513,41.17097],[-71.55511,41.17098],[-71.55507,41.171],[-71.55509,41.17112],[-71.55515,41.17127],[-71.55527,41.17132],[-71.55537,41.17136],[-71.55544,41.17139],[-71.55551,41.17145],[-71.55559,41.17154],[-71.55562,41.17157]]}},{"type":"Feature","properties":{"osm":1511089492,"name":"","highway":"footway"},"geometry":{"type":"LineString","coordinates":[[-71.57072,41.17603],[-71.57075,41.176],[-71.57078,41.17597],[-71.5708,41.17596],[-71.57082,41.17596],[-71.57083,41.17595]]}},{"type":"Feature","properties":{"osm":1511115487,"name":"Adrian Mitchell Trail","highway":"footway"},"geometry":{"type":"LineString","coordinates":[[-71.57128,41.17687],[-71.57144,41.17674],[-71.57146,41.17672],[-71.57147,41.17669],[-71.57148,41.17666],[-71.57148,41.17662],[-71.57148,41.17659],[-71.57146,41.17655],[-71.57144,41.17652],[-71.57139,41.1765],[-71.56977,41.17577],[-71.56857,41.17522],[-71.56839,41.17514],[-71.56823,41.17506],[-71.56805,41.17495],[-71.56787,41.17484],[-71.56743,41.17456],[-71.56735,41.17452],[-71.56726,41.17448],[-71.5672,41.17445],[-71.56712,41.17443],[-71.56704,41.17441],[-71.56693,41.1744],[-71.56637,41.17435]]}},{"type":"Feature","properties":{"osm":1511115488,"name":"Adrian Mitchell Trail","highway":"footway"},"geometry":{"type":"LineString","coordinates":[[-71.56637,41.17435],[-71.56589,41.17431],[-71.56528,41.17425],[-71.5647,41.1742],[-71.56449,41.17418],[-71.56411,41.17413],[-71.56408,41.17413],[-71.56358,41.17408],[-71.56329,41.17405],[-71.56286,41.174],[-71.56229,41.17394],[-71.5622,41.17393],[-71.56209,41.17391],[-71.56205,41.1739],[-71.56201,41.1739],[-71.56198,41.1739],[-71.56195,41.1739]]}},{"type":"Feature","properties":{"osm":1511115489,"name":"","highway":"footway"},"geometry":{"type":"LineString","coordinates":[[-71.57115,41.17707],[-71.57117,41.17706],[-71.57119,41.17706],[-71.57121,41.17705],[-71.57123,41.17705],[-71.57125,41.17705],[-71.57128,41.17705],[-71.5713,41.17706],[-71.57131,41.17706],[-71.57133,41.17707],[-71.57135,41.17709],[-71.57144,41.1772],[-71.57215,41.17805],[-71.57229,41.17822],[-71.57236,41.17832],[-71.57241,41.1784]]}},{"type":"Feature","properties":{"osm":1511115490,"name":"","highway":"footway"},"geometry":{"type":"LineString","coordinates":[[-71.57241,41.1784],[-71.57256,41.1786]]}},{"type":"Feature","properties":{"osm":1511115491,"name":"","highway":"footway"},"geometry":{"type":"LineString","coordinates":[[-71.57117,41.17706],[-71.57113,41.17704],[-71.57109,41.17701]]}},{"type":"Feature","properties":{"osm":1511115492,"name":"","highway":"footway"},"geometry":{"type":"LineString","coordinates":[[-71.57091,41.17712],[-71.57099,41.17705],[-71.57101,41.17704],[-71.57105,41.17703],[-71.57107,41.17702],[-71.57109,41.17701],[-71.57111,41.17699]]}},{"type":"Feature","properties":{"osm":1511115493,"name":"","highway":"footway"},"geometry":{"type":"LineString","coordinates":[[-71.57111,41.17699],[-71.57128,41.17687]]}},{"type":"Feature","properties":{"osm":1511115494,"name":"","highway":"footway"},"geometry":{"type":"LineString","coordinates":[[-71.57256,41.1786],[-71.57265,41.17875],[-71.57275,41.17888],[-71.57285,41.17901],[-71.57295,41.17916],[-71.57314,41.17944],[-71.57334,41.17973],[-71.57347,41.17993],[-71.57357,41.18008],[-71.57364,41.18019],[-71.57378,41.18042],[-71.57389,41.18056],[-71.57393,41.18063],[-71.57412,41.1809],[-71.57419,41.181],[-71.57434,41.18123],[-71.57455,41.18155]]}},{"type":"Feature","properties":{"osm":1511115495,"name":"","highway":"footway"},"geometry":{"type":"LineString","coordinates":[[-71.57393,41.18063],[-71.57401,41.18061],[-71.57409,41.18058]]}},{"type":"Feature","properties":{"osm":1511115496,"name":"","highway":"footway"},"geometry":{"type":"LineString","coordinates":[[-71.57411,41.18061],[-71.57409,41.18058],[-71.57409,41.18057],[-71.57409,41.18056],[-71.5741,41.18055],[-71.57411,41.18055],[-71.57412,41.18054],[-71.57471,41.18054],[-71.57516,41.18054],[-71.57533,41.18053],[-71.57544,41.18052],[-71.5756,41.1805],[-71.5758,41.18047],[-71.576,41.18043],[-71.57618,41.18039],[-71.57641,41.18033],[-71.57661,41.18029],[-71.57692,41.18022],[-71.57711,41.18016],[-71.57728,41.18012],[-71.57756,41.18003],[-71.57774,41.17997],[-71.57788,41.17993],[-71.57798,41.17991],[-71.57809,41.17988],[-71.57818,41.17987],[-71.57836,41.17986],[-71.57859,41.17985],[-71.57877,41.17986],[-71.57894,41.17987],[-71.57917,41.17992],[-71.57934,41.17997],[-71.57959,41.18004],[-71.58002,41.18017],[-71.58043,41.1803],[-71.58143,41.18059],[-71.58164,41.18065],[-71.58175,41.18068],[-71.58184,41.18069],[-71.58197,41.18071],[-71.5821,41.18072],[-71.58217,41.18073],[-71.58237,41.18074],[-71.58245,41.18074],[-71.58251,41.18076]]}},{"type":"Feature","properties":{"osm":1511123361,"name":"","highway":"track"},"geometry":{"type":"LineString","coordinates":[[-71.58227,41.16876],[-71.58231,41.16905]]}},{"type":"Feature","properties":{"osm":null,"name":"Meadow Hill Trail","highway":"path","source":"Trail runs from the Old Town Road trailhead (41.17146,-71.57187) to Old Town Road at Connecticut Avenue, arching north of the road around the base of the hill. OpenStreetMap has no path here; the line follows that published route."},"geometry":{"type":"LineString","coordinates":[[-71.572018,41.171458],[-71.571687,41.171545],[-71.571607,41.17158],[-71.57135,41.171679],[-71.571265,41.171744],[-71.5707,41.172011],[-71.570349,41.172156],[-71.5701,41.172224],[-71.569645,41.172315],[-71.569353,41.172333],[-71.569023,41.172337],[-71.568709,41.172307],[-71.568504,41.17227],[-71.568589,41.172255],[-71.568617,41.172226],[-71.568607,41.172193],[-71.56844,41.172172],[-71.568288,41.172155],[-71.568095,41.172135],[-71.566551,41.172104],[-71.566307,41.172099]]}}]}